{
	"type" : "FeatureCollection",
	"name" : "MP03_MRT_AN",
	"features" : [
		{
			"type" : "Feature",
			"geometry" : {
				"type" : "LineString",
				"coordinates" : [
					[ 103.84313913230017, 1.2837614263070132 ],
					[ 103.84390693845367, 1.2846869839619877 ]
				]
			},
			"properties" : {
				"OBJECTID" : 16,
				"FEATUREID" : -1,
				"ZORDER" : null,
				"ANNOTATIONCLASSID" : 0,
				"SYMBOLID" : -1,
				"STATUS" : 0,
				"TEXTSTRING" : "CHINATOWN ",
				"FONTNAME" : "Arial",
				"FONTSIZE" : 56.69,
				"BOLD" : 0,
				"ITALIC" : 0,
				"UNDERLINE" : 0,
				"VERTICALALIGNMENT" : 3,
				"HORIZONTALALIGNMENT" : 0,
				"XOFFSET" : 0,
				"YOFFSET" : 0,
				"ANGLE" : 50.1404121,
				"FONTLEADING" : 0,
				"WORDSPACING" : 100,
				"CHARACTERWIDTH" : 100,
				"CHARACTERSPACING" : 0,
				"FLIPANGLE" : 0,
				"OVERRIDE" : 0,
				"INC_CRC" : "659DF32D9BB6CEC9",
				"FMEL_UPD_D" : "20170412174629",
				"SHAPE.AREA" : 2838.0753774,
				"SHAPE.LEN" : 298.735320126968
			}
		},
		{
			"type" : "Feature",
			"geometry" : {
				"type" : "LineString",
				"coordinates" : [
					[ 103.9492643701975, 1.3725802931544004 ],
					[ 103.94953973086503, 1.3736294878188335 ]
				]
			},
			"properties" : {
				"OBJECTID" : 17,
				"FEATUREID" : -1,
				"ZORDER" : null,
				"ANNOTATIONCLASSID" : 0,
				"SYMBOLID" : -1,
				"STATUS" : 0,
				"TEXTSTRING" : "PASIR RIS",
				"FONTNAME" : "Arial",
				"FONTSIZE" : 56.69,
				"BOLD" : 0,
				"ITALIC" : 0,
				"UNDERLINE" : 0,
				"VERTICALALIGNMENT" : 3,
				"HORIZONTALALIGNMENT" : 0,
				"XOFFSET" : 0,
				"YOFFSET" : 0,
				"ANGLE" : 75.206528,
				"FONTLEADING" : 0,
				"WORDSPACING" : 100,
				"CHARACTERWIDTH" : 100,
				"CHARACTERSPACING" : 0,
				"FLIPANGLE" : 0,
				"OVERRIDE" : 0,
				"INC_CRC" : "5EF30BD7B5800975",
				"FMEL_UPD_D" : "20170412174629",
				"SHAPE.AREA" : 2176.772850835,
				"SHAPE.LEN" : 239.538915972708
			}
		},
		{
			"type" : "Feature",
			"geometry" : {
				"type" : "LineString",
				"coordinates" : [
					[ 103.86153152019892, 1.3191847462233224 ],
					[ 103.8622310040055, 1.3200105737018073 ]
				]
			},
			"properties" : {
				"OBJECTID" : 19,
				"FEATUREID" : -1,
				"ZORDER" : null,
				"ANNOTATIONCLASSID" : 0,
				"SYMBOLID" : -1,
				"STATUS" : 0,
				"TEXTSTRING" : "BOON KENG",
				"FONTNAME" : "Arial",
				"FONTSIZE" : 56.69,
				"BOLD" : 0,
				"ITALIC" : 0,
				"UNDERLINE" : 0,
				"VERTICALALIGNMENT" : 3,
				"HORIZONTALALIGNMENT" : 0,
				"XOFFSET" : 0,
				"YOFFSET" : 0,
				"ANGLE" : 49.55343553,
				"FONTLEADING" : 0,
				"WORDSPACING" : 100,
				"CHARACTERWIDTH" : 100,
				"CHARACTERSPACING" : 0,
				"FLIPANGLE" : 0,
				"OVERRIDE" : 0,
				"INC_CRC" : "16FA670498BA8C0D",
				"FMEL_UPD_D" : "20170412174629",
				"SHAPE.AREA" : 2706.29915632,
				"SHAPE.LEN" : 286.939105791537
			}
		},
		{
			"type" : "Feature",
			"geometry" : {
				"type" : "LineString",
				"coordinates" : [
					[ 103.7977424648731, 1.3027969937026105 ],
					[ 103.79861946602736, 1.3020203954336997 ]
				]
			},
			"properties" : {
				"OBJECTID" : 21,
				"FEATUREID" : -1,
				"ZORDER" : null,
				"ANNOTATIONCLASSID" : 0,
				"SYMBOLID" : -1,
				"STATUS" : 0,
				"TEXTSTRING" : "COMMONWEALTH ",
				"FONTNAME" : "Arial",
				"FONTSIZE" : 42.52,
				"BOLD" : 0,
				"ITALIC" : 0,
				"UNDERLINE" : 0,
				"VERTICALALIGNMENT" : 3,
				"HORIZONTALALIGNMENT" : 0,
				"XOFFSET" : 0,
				"YOFFSET" : 0,
				"ANGLE" : 318.6573,
				"FONTLEADING" : 0,
				"WORDSPACING" : 100,
				"CHARACTERWIDTH" : 100,
				"CHARACTERSPACING" : 0,
				"FLIPANGLE" : 0,
				"OVERRIDE" : 0,
				"INC_CRC" : "CF8C231A065FDA1A",
				"FMEL_UPD_D" : "20170412174629",
				"SHAPE.AREA" : 2271.55428579,
				"SHAPE.LEN" : 304.61716908703
			}
		},
		{
			"type" : "Feature",
			"geometry" : {
				"type" : "LineString",
				"coordinates" : [
					[ 103.84508495008822, 1.2991567183420254 ],
					[ 103.84645062638278, 1.2987047945087529 ]
				]
			},
			"properties" : {
				"OBJECTID" : 31,
				"FEATUREID" : -1,
				"ZORDER" : null,
				"ANNOTATIONCLASSID" : 0,
				"SYMBOLID" : -1,
				"STATUS" : 0,
				"TEXTSTRING" : "DHOBY GHAUT ",
				"FONTNAME" : "Arial",
				"FONTSIZE" : 56.69,
				"BOLD" : 0,
				"ITALIC" : 0,
				"UNDERLINE" : 0,
				"VERTICALALIGNMENT" : 3,
				"HORIZONTALALIGNMENT" : 0,
				"XOFFSET" : 0,
				"YOFFSET" : 0,
				"ANGLE" : -18.19986543,
				"FONTLEADING" : 0,
				"WORDSPACING" : 100,
				"CHARACTERWIDTH" : 100,
				"CHARACTERSPACING" : 0,
				"FLIPANGLE" : 0,
				"OVERRIDE" : 0,
				"INC_CRC" : "1B9FFC3CE26290D6",
				"FMEL_UPD_D" : "20170412174629",
				"SHAPE.AREA" : 3385.04849158,
				"SHAPE.LEN" : 347.697632373675
			}
		},
		{
			"type" : "Feature",
			"geometry" : {
				"type" : "LineString",
				"coordinates" : [
					[ 103.83863478736369, 1.3002370361060032 ],
					[ 103.83968830478241, 1.3000061744005313 ]
				]
			},
			"properties" : {
				"OBJECTID" : 32,
				"FEATUREID" : -1,
				"ZORDER" : null,
				"ANNOTATIONCLASSID" : 0,
				"SYMBOLID" : -1,
				"STATUS" : 0,
				"TEXTSTRING" : "SOMERSET ",
				"FONTNAME" : "Arial",
				"FONTSIZE" : 56.69,
				"BOLD" : 0,
				"ITALIC" : 0,
				"UNDERLINE" : 0,
				"VERTICALALIGNMENT" : 3,
				"HORIZONTALALIGNMENT" : 0,
				"XOFFSET" : 0,
				"YOFFSET" : 0,
				"ANGLE" : -12.28284435,
				"FONTLEADING" : 0,
				"WORDSPACING" : 100,
				"CHARACTERWIDTH" : 100,
				"CHARACTERSPACING" : 0,
				"FLIPANGLE" : 0,
				"OVERRIDE" : 0,
				"INC_CRC" : "2C7C5C1160C7A4ED",
				"FMEL_UPD_D" : "20170412174629",
				"SHAPE.AREA" : 2623.602915755,
				"SHAPE.LEN" : 279.536896651043
			}
		},
		{
			"type" : "Feature",
			"geometry" : {
				"type" : "LineString",
				"coordinates" : [
					[ 103.90291771950774, 1.3196416195364418 ],
					[ 103.90351192999616, 1.3197177330014316 ]
				]
			},
			"properties" : {
				"OBJECTID" : 33,
				"FEATUREID" : -1,
				"ZORDER" : null,
				"ANNOTATIONCLASSID" : 0,
				"SYMBOLID" : -1,
				"STATUS" : 0,
				"TEXTSTRING" : "EUNOS",
				"FONTNAME" : "Arial",
				"FONTSIZE" : 56.69,
				"BOLD" : 0,
				"ITALIC" : 0,
				"UNDERLINE" : 0,
				"VERTICALALIGNMENT" : 3,
				"HORIZONTALALIGNMENT" : 0,
				"XOFFSET" : 0,
				"YOFFSET" : 0,
				"ANGLE" : 7.254564,
				"FONTLEADING" : 0,
				"WORDSPACING" : 100,
				"CHARACTERWIDTH" : 100,
				"CHARACTERSPACING" : 0,
				"FLIPANGLE" : 0,
				"OVERRIDE" : 0,
				"INC_CRC" : "5BD0D7D2ADC3B628",
				"FMEL_UPD_D" : "20170412174629",
				"SHAPE.AREA" : 1588.99961103,
				"SHAPE.LEN" : 186.924431918753
			}
		},
		{
			"type" : "Feature",
			"geometry" : {
				"type" : "LineString",
				"coordinates" : [
					[ 103.84427960206033, 1.3821733315266271 ],
					[ 103.8452722742647, 1.3811267145533905 ]
				]
			},
			"properties" : {
				"OBJECTID" : 36,
				"FEATUREID" : -1,
				"ZORDER" : null,
				"ANNOTATIONCLASSID" : 0,
				"SYMBOLID" : -1,
				"STATUS" : 0,
				"TEXTSTRING" : "YIO CHU KANG",
				"FONTNAME" : "Arial",
				"FONTSIZE" : 56.69,
				"BOLD" : 0,
				"ITALIC" : 0,
				"UNDERLINE" : 0,
				"VERTICALALIGNMENT" : 3,
				"HORIZONTALALIGNMENT" : 0,
				"XOFFSET" : 0,
				"YOFFSET" : 0,
				"ANGLE" : -46.331245,
				"FONTLEADING" : 0,
				"WORDSPACING" : 100,
				"CHARACTERWIDTH" : 100,
				"CHARACTERSPACING" : 0,
				"FLIPANGLE" : 0,
				"OVERRIDE" : 0,
				"INC_CRC" : "1A53B3027FD1E9F9",
				"FMEL_UPD_D" : "20170412174629",
				"SHAPE.AREA" : 3252.40257018,
				"SHAPE.LEN" : 335.823387830069
			}
		},
		{
			"type" : "Feature",
			"geometry" : {
				"type" : "LineString",
				"coordinates" : [
					[ 103.84487966859619, 1.2762986972894144 ],
					[ 103.84654697785636, 1.2764815913482719 ]
				]
			},
			"properties" : {
				"OBJECTID" : 23,
				"FEATUREID" : -1,
				"ZORDER" : null,
				"ANNOTATIONCLASSID" : 0,
				"SYMBOLID" : -1,
				"STATUS" : 0,
				"TEXTSTRING" : "TANJONG PAGAR ",
				"FONTNAME" : "Arial",
				"FONTSIZE" : 56.69,
				"BOLD" : 0,
				"ITALIC" : 0,
				"UNDERLINE" : 0,
				"VERTICALALIGNMENT" : 3,
				"HORIZONTALALIGNMENT" : 0,
				"XOFFSET" : 0,
				"YOFFSET" : 0,
				"ANGLE" : 6.22023326,
				"FONTLEADING" : 0,
				"WORDSPACING" : 100,
				"CHARACTERWIDTH" : 100,
				"CHARACTERSPACING" : 0,
				"FLIPANGLE" : 0,
				"OVERRIDE" : 0,
				"INC_CRC" : "CEEC43380AE03457",
				"FMEL_UPD_D" : "20170412174629",
				"SHAPE.AREA" : 3881.187397425,
				"SHAPE.LEN" : 392.109548822
			}
		},
		{
			"type" : "Feature",
			"geometry" : {
				"type" : "LineString",
				"coordinates" : [
					[ 103.83301403478472, 1.4173312543794352 ],
					[ 103.83333705384642, 1.4179775505585883 ]
				]
			},
			"properties" : {
				"OBJECTID" : 24,
				"FEATUREID" : -1,
				"ZORDER" : null,
				"ANNOTATIONCLASSID" : 0,
				"SYMBOLID" : -1,
				"STATUS" : 0,
				"TEXTSTRING" : "KHATIB",
				"FONTNAME" : "Arial",
				"FONTSIZE" : 56.69,
				"BOLD" : 0,
				"ITALIC" : 0,
				"UNDERLINE" : 0,
				"VERTICALALIGNMENT" : 3,
				"HORIZONTALALIGNMENT" : 0,
				"XOFFSET" : 0,
				"YOFFSET" : 0,
				"ANGLE" : 63.29702,
				"FONTLEADING" : 0,
				"WORDSPACING" : 100,
				"CHARACTERWIDTH" : 100,
				"CHARACTERSPACING" : 0,
				"FLIPANGLE" : 0,
				"OVERRIDE" : 0,
				"INC_CRC" : "2F4FCC230E8EA000",
				"FMEL_UPD_D" : "20170412174629",
				"SHAPE.AREA" : 1580.70725725,
				"SHAPE.LEN" : 186.182222871795
			}
		},
		{
			"type" : "Feature",
			"geometry" : {
				"type" : "LineString",
				"coordinates" : [
					[ 103.80566311959105, 1.2950432019203946 ],
					[ 103.80619762711342, 1.2942064034336622 ]
				]
			},
			"properties" : {
				"OBJECTID" : 25,
				"FEATUREID" : -1,
				"ZORDER" : null,
				"ANNOTATIONCLASSID" : 0,
				"SYMBOLID" : -1,
				"STATUS" : 0,
				"TEXTSTRING" : "QUEENSTOWN ",
				"FONTNAME" : "Arial",
				"FONTSIZE" : 42.52,
				"BOLD" : 0,
				"ITALIC" : 0,
				"UNDERLINE" : 0,
				"VERTICALALIGNMENT" : 3,
				"HORIZONTALALIGNMENT" : 0,
				"XOFFSET" : 0,
				"YOFFSET" : 0,
				"ANGLE" : 302.736,
				"FONTLEADING" : 0,
				"WORDSPACING" : 100,
				"CHARACTERWIDTH" : 100,
				"CHARACTERSPACING" : 0,
				"FLIPANGLE" : 0,
				"OVERRIDE" : 0,
				"INC_CRC" : "1266383F386A8242",
				"FMEL_UPD_D" : "20170412174629",
				"SHAPE.AREA" : 1894.73639043,
				"SHAPE.LEN" : 259.64597720207
			}
		},
		{
			"type" : "Feature",
			"geometry" : {
				"type" : "LineString",
				"coordinates" : [
					[ 103.74929191648722, 1.3484652119133342 ],
					[ 103.7500779169447, 1.3495298034482561 ]
				]
			},
			"properties" : {
				"OBJECTID" : 28,
				"FEATUREID" : -1,
				"ZORDER" : null,
				"ANNOTATIONCLASSID" : 0,
				"SYMBOLID" : -1,
				"STATUS" : 0,
				"TEXTSTRING" : "BUKIT BATOK",
				"FONTNAME" : "Arial",
				"FONTSIZE" : 56.69,
				"BOLD" : 0,
				"ITALIC" : 0,
				"UNDERLINE" : 0,
				"VERTICALALIGNMENT" : 3,
				"HORIZONTALALIGNMENT" : 0,
				"XOFFSET" : 0,
				"YOFFSET" : 0,
				"ANGLE" : 53.382771,
				"FONTLEADING" : 0,
				"WORDSPACING" : 100,
				"CHARACTERWIDTH" : 100,
				"CHARACTERSPACING" : 0,
				"FLIPANGLE" : 0,
				"OVERRIDE" : 0,
				"INC_CRC" : "559DBC09D2FFD097",
				"FMEL_UPD_D" : "20170412174630",
				"SHAPE.AREA" : 2905.26984439,
				"SHAPE.LEN" : 304.750543909565
			}
		},
		{
			"type" : "Feature",
			"geometry" : {
				"type" : "LineString",
				"coordinates" : [
					[ 103.73213354656812, 1.3426188485145876 ],
					[ 103.73347076078774, 1.3415999172790283 ]
				]
			},
			"properties" : {
				"OBJECTID" : 3,
				"FEATUREID" : -1,
				"ZORDER" : null,
				"ANNOTATIONCLASSID" : 0,
				"SYMBOLID" : -1,
				"STATUS" : 0,
				"TEXTSTRING" : "CHINESE GARDEN",
				"FONTNAME" : "Arial",
				"FONTSIZE" : 56.69,
				"BOLD" : 0,
				"ITALIC" : 0,
				"UNDERLINE" : 0,
				"VERTICALALIGNMENT" : 3,
				"HORIZONTALALIGNMENT" : 0,
				"XOFFSET" : 0,
				"YOFFSET" : 0,
				"ANGLE" : 322.86864428,
				"FONTLEADING" : 0,
				"WORDSPACING" : 100,
				"CHARACTERWIDTH" : 100,
				"CHARACTERSPACING" : 0,
				"FLIPANGLE" : 0,
				"OVERRIDE" : 0,
				"INC_CRC" : "F35C95B3E501227F",
				"FMEL_UPD_D" : "20170412174630",
				"SHAPE.AREA" : 4022.12823428,
				"SHAPE.LEN" : 404.726074397465
			}
		},
		{
			"type" : "Feature",
			"geometry" : {
				"type" : "LineString",
				"coordinates" : [
					[ 103.74177628256633, 1.3337711698173926 ],
					[ 103.74241659614663, 1.3326119301097534 ]
				]
			},
			"properties" : {
				"OBJECTID" : 4,
				"FEATUREID" : -1,
				"ZORDER" : null,
				"ANNOTATIONCLASSID" : 0,
				"SYMBOLID" : -1,
				"STATUS" : 0,
				"TEXTSTRING" : "JURONG EAST",
				"FONTNAME" : "Arial",
				"FONTSIZE" : 56.69,
				"BOLD" : 0,
				"ITALIC" : 0,
				"UNDERLINE" : 0,
				"VERTICALALIGNMENT" : 3,
				"HORIZONTALALIGNMENT" : 0,
				"XOFFSET" : 0,
				"YOFFSET" : 0,
				"ANGLE" : -60.931278,
				"FONTLEADING" : 0,
				"WORDSPACING" : 100,
				"CHARACTERWIDTH" : 100,
				"CHARACTERSPACING" : 0,
				"FLIPANGLE" : 0,
				"OVERRIDE" : 0,
				"INC_CRC" : "F04FA69FBEE21169",
				"FMEL_UPD_D" : "20170412174630",
				"SHAPE.AREA" : 3177.77671178,
				"SHAPE.LEN" : 329.143865554501
			}
		},
		{
			"type" : "Feature",
			"geometry" : {
				"type" : "LineString",
				"coordinates" : [
					[ 103.77345115357045, 1.432440686138998 ],
					[ 103.77452941063805, 1.432440714235874 ]
				]
			},
			"properties" : {
				"OBJECTID" : 5,
				"FEATUREID" : -1,
				"ZORDER" : null,
				"ANNOTATIONCLASSID" : 0,
				"SYMBOLID" : -1,
				"STATUS" : 0,
				"TEXTSTRING" : "MARSILING",
				"FONTNAME" : "Arial",
				"FONTSIZE" : 56.69,
				"BOLD" : 0,
				"ITALIC" : 0,
				"UNDERLINE" : 0,
				"VERTICALALIGNMENT" : 3,
				"HORIZONTALALIGNMENT" : 0,
				"XOFFSET" : 0,
				"YOFFSET" : 0,
				"ANGLE" : 0,
				"FONTLEADING" : 0,
				"WORDSPACING" : 100,
				"CHARACTERWIDTH" : 100,
				"CHARACTERSPACING" : 0,
				"FLIPANGLE" : 0,
				"OVERRIDE" : 0,
				"INC_CRC" : "A144E85769A36137",
				"FMEL_UPD_D" : "20170412174630",
				"SHAPE.AREA" : 2458.00103066,
				"SHAPE.LEN" : 264.7134
			}
		},
		{
			"type" : "Feature",
			"geometry" : {
				"type" : "LineString",
				"coordinates" : [
					[ 103.94597857989729, 1.3269364364957343 ],
					[ 103.94721792302633, 1.3273872743533952 ]
				]
			},
			"properties" : {
				"OBJECTID" : 7,
				"FEATUREID" : -1,
				"ZORDER" : null,
				"ANNOTATIONCLASSID" : 0,
				"SYMBOLID" : -1,
				"STATUS" : 0,
				"TEXTSTRING" : "TANAH MERAH",
				"FONTNAME" : "Arial",
				"FONTSIZE" : 56.69,
				"BOLD" : 0,
				"ITALIC" : 0,
				"UNDERLINE" : 0,
				"VERTICALALIGNMENT" : 3,
				"HORIZONTALALIGNMENT" : 0,
				"XOFFSET" : 0,
				"YOFFSET" : 0,
				"ANGLE" : 19.874235,
				"FONTLEADING" : 0,
				"WORDSPACING" : 100,
				"CHARACTERWIDTH" : 100,
				"CHARACTERSPACING" : 0,
				"FLIPANGLE" : 0,
				"OVERRIDE" : 0,
				"INC_CRC" : "6680D83C73C59511",
				"FMEL_UPD_D" : "20170412174630",
				"SHAPE.AREA" : 3219.01644504,
				"SHAPE.LEN" : 332.835122725124
			}
		},
		{
			"type" : "Feature",
			"geometry" : {
				"type" : "LineString",
				"coordinates" : [
					[ 103.84375059573782, 1.3202182996018699 ],
					[ 103.84423152640119, 1.3207559706863894 ]
				]
			},
			"properties" : {
				"OBJECTID" : 9,
				"FEATUREID" : -1,
				"ZORDER" : null,
				"ANNOTATIONCLASSID" : 0,
				"SYMBOLID" : -1,
				"STATUS" : 0,
				"TEXTSTRING" : "NOVENA",
				"FONTNAME" : "Arial",
				"FONTSIZE" : 56.69,
				"BOLD" : 0,
				"ITALIC" : 0,
				"UNDERLINE" : 0,
				"VERTICALALIGNMENT" : 3,
				"HORIZONTALALIGNMENT" : 0,
				"XOFFSET" : 0,
				"YOFFSET" : 0,
				"ANGLE" : 48.004932,
				"FONTLEADING" : 0,
				"WORDSPACING" : 100,
				"CHARACTERWIDTH" : 100,
				"CHARACTERSPACING" : 0,
				"FLIPANGLE" : 0,
				"OVERRIDE" : 0,
				"INC_CRC" : "014DAAFC0B16A526",
				"FMEL_UPD_D" : "20170412174630",
				"SHAPE.AREA" : 1887.03273612,
				"SHAPE.LEN" : 213.602782192347
			}
		},
		{
			"type" : "Feature",
			"geometry" : {
				"type" : "LineString",
				"coordinates" : [
					[ 103.7474359753925, 1.3972201427752726 ],
					[ 103.74765731545533, 1.3980342438504205 ]
				]
			},
			"properties" : {
				"OBJECTID" : 10,
				"FEATUREID" : -1,
				"ZORDER" : null,
				"ANNOTATIONCLASSID" : 0,
				"SYMBOLID" : -1,
				"STATUS" : 0,
				"TEXTSTRING" : "YEW TEE",
				"FONTNAME" : "Arial",
				"FONTSIZE" : 56.69,
				"BOLD" : 0,
				"ITALIC" : 0,
				"UNDERLINE" : 0,
				"VERTICALALIGNMENT" : 3,
				"HORIZONTALALIGNMENT" : 0,
				"XOFFSET" : 0,
				"YOFFSET" : 0,
				"ANGLE" : 74.694519,
				"FONTLEADING" : 0,
				"WORDSPACING" : 100,
				"CHARACTERWIDTH" : 100,
				"CHARACTERSPACING" : 0,
				"FLIPANGLE" : 0,
				"OVERRIDE" : 0,
				"INC_CRC" : "37A40D3C8D283835",
				"FMEL_UPD_D" : "20170412174630",
				"SHAPE.AREA" : 2002.88610825,
				"SHAPE.LEN" : 223.973445670705
			}
		},
		{
			"type" : "Feature",
			"geometry" : {
				"type" : "LineString",
				"coordinates" : [
					[ 103.86249830456474, 1.3069528252203897 ],
					[ 103.86318726368802, 1.3076233729950946 ]
				]
			},
			"properties" : {
				"OBJECTID" : 12,
				"FEATUREID" : -1,
				"ZORDER" : null,
				"ANNOTATIONCLASSID" : 0,
				"SYMBOLID" : -1,
				"STATUS" : 0,
				"TEXTSTRING" : "LAVENDER",
				"FONTNAME" : "Arial",
				"FONTSIZE" : 56.69,
				"BOLD" : 0,
				"ITALIC" : 0,
				"UNDERLINE" : 0,
				"VERTICALALIGNMENT" : 3,
				"HORIZONTALALIGNMENT" : 0,
				"XOFFSET" : 0,
				"YOFFSET" : 0,
				"ANGLE" : 44.040001,
				"FONTLEADING" : 0,
				"WORDSPACING" : 100,
				"CHARACTERWIDTH" : 100,
				"CHARACTERSPACING" : 0,
				"FLIPANGLE" : 0,
				"OVERRIDE" : 0,
				"INC_CRC" : "D57D9F0D498A36C6",
				"FMEL_UPD_D" : "20170412174630",
				"SHAPE.AREA" : 2375.53080715,
				"SHAPE.LEN" : 257.330924724177
			}
		},
		{
			"type" : "Feature",
			"geometry" : {
				"type" : "LineString",
				"coordinates" : [
					[ 103.98812270175249, 1.3572976349048522 ],
					[ 103.98889244885811, 1.3569626739150686 ]
				]
			},
			"properties" : {
				"OBJECTID" : 14,
				"FEATUREID" : -1,
				"ZORDER" : null,
				"ANNOTATIONCLASSID" : 0,
				"SYMBOLID" : -1,
				"STATUS" : 0,
				"TEXTSTRING" : "AIRPORT",
				"FONTNAME" : "Arial",
				"FONTSIZE" : 56.69,
				"BOLD" : 0,
				"ITALIC" : 0,
				"UNDERLINE" : 0,
				"VERTICALALIGNMENT" : 3,
				"HORIZONTALALIGNMENT" : 0,
				"XOFFSET" : 0,
				"YOFFSET" : 0,
				"ANGLE" : 336.621613,
				"FONTLEADING" : 0,
				"WORDSPACING" : 100,
				"CHARACTERWIDTH" : 100,
				"CHARACTERSPACING" : 0,
				"FLIPANGLE" : 0,
				"OVERRIDE" : 0,
				"INC_CRC" : "5E4E3780CF70A3D9",
				"FMEL_UPD_D" : "20170412174630",
				"SHAPE.AREA" : 1978.0150629,
				"SHAPE.LEN" : 221.746931019395
			}
		},
		{
			"type" : "Feature",
			"geometry" : {
				"type" : "LineString",
				"coordinates" : [
					[ 103.83509005189042, 1.4293325629663653 ],
					[ 103.83511687013272, 1.4300555131930126 ]
				]
			},
			"properties" : {
				"OBJECTID" : 22,
				"FEATUREID" : -1,
				"ZORDER" : null,
				"ANNOTATIONCLASSID" : 0,
				"SYMBOLID" : -1,
				"STATUS" : 0,
				"TEXTSTRING" : "YISHUN",
				"FONTNAME" : "Arial",
				"FONTSIZE" : 56.69,
				"BOLD" : 0,
				"ITALIC" : 0,
				"UNDERLINE" : 0,
				"VERTICALALIGNMENT" : 3,
				"HORIZONTALALIGNMENT" : 0,
				"XOFFSET" : 0,
				"YOFFSET" : 0,
				"ANGLE" : 87.861969,
				"FONTLEADING" : 0,
				"WORDSPACING" : 100,
				"CHARACTERWIDTH" : 100,
				"CHARACTERSPACING" : 0,
				"FLIPANGLE" : 0,
				"OVERRIDE" : 0,
				"INC_CRC" : "012FE4B25464CA89",
				"FMEL_UPD_D" : "20170412174629",
				"SHAPE.AREA" : 1688.27119021,
				"SHAPE.LEN" : 195.810709207576
			}
		},
		{
			"type" : "Feature",
			"geometry" : {
				"type" : "LineString",
				"coordinates" : [
					[ 103.78553450216062, 1.4365019182962209 ],
					[ 103.78654439396733, 1.4368821816074666 ]
				]
			},
			"properties" : {
				"OBJECTID" : 27,
				"FEATUREID" : -1,
				"ZORDER" : null,
				"ANNOTATIONCLASSID" : 0,
				"SYMBOLID" : -1,
				"STATUS" : 0,
				"TEXTSTRING" : "WOODLANDS",
				"FONTNAME" : "Arial",
				"FONTSIZE" : 56.69,
				"BOLD" : 0,
				"ITALIC" : 0,
				"UNDERLINE" : 0,
				"VERTICALALIGNMENT" : 3,
				"HORIZONTALALIGNMENT" : 0,
				"XOFFSET" : 0,
				"YOFFSET" : 0,
				"ANGLE" : 20.511505,
				"FONTLEADING" : 0,
				"WORDSPACING" : 100,
				"CHARACTERWIDTH" : 100,
				"CHARACTERSPACING" : 0,
				"FLIPANGLE" : 0,
				"OVERRIDE" : 0,
				"INC_CRC" : "34E8B0F41445E51E",
				"FMEL_UPD_D" : "20170412174630",
				"SHAPE.AREA" : 2929.49524086,
				"SHAPE.LEN" : 306.918509353226
			}
		},
		{
			"type" : "Feature",
			"geometry" : {
				"type" : "LineString",
				"coordinates" : [
					[ 103.83778833130455, 1.3120587466530862 ],
					[ 103.83850981795956, 1.3124889612682344 ]
				]
			},
			"properties" : {
				"OBJECTID" : 2,
				"FEATUREID" : -1,
				"ZORDER" : null,
				"ANNOTATIONCLASSID" : 0,
				"SYMBOLID" : -1,
				"STATUS" : 0,
				"TEXTSTRING" : "NEWTON ",
				"FONTNAME" : "Arial",
				"FONTSIZE" : 56.69,
				"BOLD" : 0,
				"ITALIC" : 0,
				"UNDERLINE" : 0,
				"VERTICALALIGNMENT" : 3,
				"HORIZONTALALIGNMENT" : 0,
				"XOFFSET" : 0,
				"YOFFSET" : 0,
				"ANGLE" : 30.64493319,
				"FONTLEADING" : 0,
				"WORDSPACING" : 100,
				"CHARACTERWIDTH" : 100,
				"CHARACTERSPACING" : 0,
				"FLIPANGLE" : 0,
				"OVERRIDE" : 0,
				"INC_CRC" : "53307E4935705A3A",
				"FMEL_UPD_D" : "20170412174630",
				"SHAPE.AREA" : 2101.71715344,
				"SHAPE.LEN" : 232.820514111023
			}
		},
		{
			"type" : "Feature",
			"geometry" : {
				"type" : "LineString",
				"coordinates" : [
					[ 103.91240274969125, 1.3208159699530493 ],
					[ 103.91345853849052, 1.3210361066615035 ]
				]
			},
			"properties" : {
				"OBJECTID" : 6,
				"FEATUREID" : -1,
				"ZORDER" : null,
				"ANNOTATIONCLASSID" : 0,
				"SYMBOLID" : -1,
				"STATUS" : 0,
				"TEXTSTRING" : "KEMBANGAN",
				"FONTNAME" : "Arial",
				"FONTSIZE" : 56.69,
				"BOLD" : 0,
				"ITALIC" : 0,
				"UNDERLINE" : 0,
				"VERTICALALIGNMENT" : 3,
				"HORIZONTALALIGNMENT" : 0,
				"XOFFSET" : 0,
				"YOFFSET" : 0,
				"ANGLE" : 11.705924,
				"FONTLEADING" : 0,
				"WORDSPACING" : 100,
				"CHARACTERWIDTH" : 100,
				"CHARACTERSPACING" : 0,
				"FLIPANGLE" : 0,
				"OVERRIDE" : 0,
				"INC_CRC" : "3A301077791A9599",
				"FMEL_UPD_D" : "20170412174630",
				"SHAPE.AREA" : 2855.30771245,
				"SHAPE.LEN" : 300.278036834114
			}
		},
		{
			"type" : "Feature",
			"geometry" : {
				"type" : "LineString",
				"coordinates" : [
					[ 103.86905984606719, 1.3306641133073067 ],
					[ 103.86942147172199, 1.3320644973539717 ]
				]
			},
			"properties" : {
				"OBJECTID" : 38,
				"FEATUREID" : -1,
				"ZORDER" : null,
				"ANNOTATIONCLASSID" : 0,
				"SYMBOLID" : -1,
				"STATUS" : 0,
				"TEXTSTRING" : "POTONG PASIR",
				"FONTNAME" : "Arial",
				"FONTSIZE" : 56.69,
				"BOLD" : 0,
				"ITALIC" : 0,
				"UNDERLINE" : 0,
				"VERTICALALIGNMENT" : 3,
				"HORIZONTALALIGNMENT" : 0,
				"XOFFSET" : 0,
				"YOFFSET" : 0,
				"ANGLE" : 75.431854,
				"FONTLEADING" : 0,
				"WORDSPACING" : 100,
				"CHARACTERWIDTH" : 100,
				"CHARACTERSPACING" : 0,
				"FLIPANGLE" : 0,
				"OVERRIDE" : 0,
				"INC_CRC" : "35135C4963DB021B",
				"FMEL_UPD_D" : "20170412174630",
				"SHAPE.AREA" : 3360.18331814,
				"SHAPE.LEN" : 345.471305029
			}
		},
		{
			"type" : "Feature",
			"geometry" : {
				"type" : "LineString",
				"coordinates" : [
					[ 103.89318020972085, 1.3823716370478027 ],
					[ 103.89324515297406, 1.383334025078928 ]
				]
			},
			"properties" : {
				"OBJECTID" : 39,
				"FEATUREID" : -1,
				"ZORDER" : null,
				"ANNOTATIONCLASSID" : 0,
				"SYMBOLID" : -1,
				"STATUS" : 0,
				"TEXTSTRING" : "BUANGKOK",
				"FONTNAME" : "Arial",
				"FONTSIZE" : 56.69,
				"BOLD" : 0,
				"ITALIC" : 0,
				"UNDERLINE" : 0,
				"VERTICALALIGNMENT" : 3,
				"HORIZONTALALIGNMENT" : 0,
				"XOFFSET" : 0,
				"YOFFSET" : 0,
				"ANGLE" : 86.1161057,
				"FONTLEADING" : 0,
				"WORDSPACING" : 100,
				"CHARACTERWIDTH" : 100,
				"CHARACTERSPACING" : 0,
				"FLIPANGLE" : 0,
				"OVERRIDE" : 0,
				"INC_CRC" : "B4B9DCEF9080AFFA",
				"FMEL_UPD_D" : "20170412174630",
				"SHAPE.AREA" : 2532.63010196,
				"SHAPE.LEN" : 271.392895301273
			}
		},
		{
			"type" : "Feature",
			"geometry" : {
				"type" : "LineString",
				"coordinates" : [
					[ 103.83908532343854, 1.2792022228714213 ],
					[ 103.84013072462348, 1.2801954313657902 ]
				]
			},
			"properties" : {
				"OBJECTID" : 40,
				"FEATUREID" : -1,
				"ZORDER" : null,
				"ANNOTATIONCLASSID" : 0,
				"SYMBOLID" : -1,
				"STATUS" : 0,
				"TEXTSTRING" : "OUTRAM PARK ",
				"FONTNAME" : "Arial",
				"FONTSIZE" : 56.69,
				"BOLD" : 0,
				"ITALIC" : 0,
				"UNDERLINE" : 0,
				"VERTICALALIGNMENT" : 3,
				"HORIZONTALALIGNMENT" : 0,
				"XOFFSET" : 0,
				"YOFFSET" : 0,
				"ANGLE" : 43.34865975,
				"FONTLEADING" : 0,
				"WORDSPACING" : 100,
				"CHARACTERWIDTH" : 100,
				"CHARACTERSPACING" : 0,
				"FLIPANGLE" : 0,
				"OVERRIDE" : 0,
				"INC_CRC" : "A36571BACAE668E6",
				"FMEL_UPD_D" : "20170412174630",
				"SHAPE.AREA" : 3368.030500625,
				"SHAPE.LEN" : 346.174250909196
			}
		},
		{
			"type" : "Feature",
			"geometry" : {
				"type" : "LineString",
				"coordinates" : [
					[ 103.78941818969223, 1.3071944489983014 ],
					[ 103.79084966747907, 1.3070610382112369 ]
				]
			},
			"properties" : {
				"OBJECTID" : 42,
				"FEATUREID" : -1,
				"ZORDER" : null,
				"ANNOTATIONCLASSID" : 0,
				"SYMBOLID" : -1,
				"STATUS" : 0,
				"TEXTSTRING" : "BUONA VISTA ",
				"FONTNAME" : "Arial",
				"FONTSIZE" : 56.69,
				"BOLD" : 0,
				"ITALIC" : 0,
				"UNDERLINE" : 0,
				"VERTICALALIGNMENT" : 3,
				"HORIZONTALALIGNMENT" : 0,
				"XOFFSET" : 0,
				"YOFFSET" : 0,
				"ANGLE" : 354.7086,
				"FONTLEADING" : 0,
				"WORDSPACING" : 100,
				"CHARACTERWIDTH" : 100,
				"CHARACTERSPACING" : 0,
				"FLIPANGLE" : 0,
				"OVERRIDE" : 0,
				"INC_CRC" : "DB84929A9336ABDA",
				"FMEL_UPD_D" : "20170412174630",
				"SHAPE.AREA" : 3045.99484178,
				"SHAPE.LEN" : 317.347564801625
			}
		},
		{
			"type" : "Feature",
			"geometry" : {
				"type" : "LineString",
				"coordinates" : [
					[ 103.85430336196892, 1.2770751250517733 ],
					[ 103.85452550175837, 1.275767771701565 ]
				]
			},
			"properties" : {
				"OBJECTID" : 44,
				"FEATUREID" : -1,
				"ZORDER" : null,
				"ANNOTATIONCLASSID" : 0,
				"SYMBOLID" : -1,
				"STATUS" : 0,
				"TEXTSTRING" : "MARINA BAY ",
				"FONTNAME" : "Arial",
				"FONTSIZE" : 56.69,
				"BOLD" : 0,
				"ITALIC" : 0,
				"UNDERLINE" : 0,
				"VERTICALALIGNMENT" : 3,
				"HORIZONTALALIGNMENT" : 0,
				"XOFFSET" : 0,
				"YOFFSET" : 0,
				"ANGLE" : -80.29481824,
				"FONTLEADING" : 0,
				"WORDSPACING" : 100,
				"CHARACTERWIDTH" : 100,
				"CHARACTERSPACING" : 0,
				"FLIPANGLE" : 0,
				"OVERRIDE" : 0,
				"INC_CRC" : "C190BD26DF8795D1",
				"FMEL_UPD_D" : "20170412174630",
				"SHAPE.AREA" : 2814.287408355,
				"SHAPE.LEN" : 296.606270567494
			}
		},
		{
			"type" : "Feature",
			"geometry" : {
				"type" : "LineString",
				"coordinates" : [
					[ 103.85232413649143, 1.2931347327809342 ],
					[ 103.85290500938056, 1.292220501024294 ]
				]
			},
			"properties" : {
				"OBJECTID" : 45,
				"FEATUREID" : -1,
				"ZORDER" : null,
				"ANNOTATIONCLASSID" : 0,
				"SYMBOLID" : -1,
				"STATUS" : 0,
				"TEXTSTRING" : "CITY HALL",
				"FONTNAME" : "Arial",
				"FONTSIZE" : 56.69,
				"BOLD" : 0,
				"ITALIC" : 0,
				"UNDERLINE" : 0,
				"VERTICALALIGNMENT" : 3,
				"HORIZONTALALIGNMENT" : 0,
				"XOFFSET" : 0,
				"YOFFSET" : 0,
				"ANGLE" : -57.40128821,
				"FONTLEADING" : 0,
				"WORDSPACING" : 100,
				"CHARACTERWIDTH" : 100,
				"CHARACTERSPACING" : 0,
				"FLIPANGLE" : 0,
				"OVERRIDE" : 0,
				"INC_CRC" : "A567EF6E430E5A9F",
				"FMEL_UPD_D" : "20170412174630",
				"SHAPE.AREA" : 2251.610480115,
				"SHAPE.LEN" : 246.237894715949
			}
		},
		{
			"type" : "Feature",
			"geometry" : {
				"type" : "LineString",
				"coordinates" : [
					[ 103.88243789383199, 1.3162519228768685 ],
					[ 103.88338154015361, 1.3164205509356672 ]
				]
			},
			"properties" : {
				"OBJECTID" : 47,
				"FEATUREID" : -1,
				"ZORDER" : null,
				"ANNOTATIONCLASSID" : 0,
				"SYMBOLID" : -1,
				"STATUS" : 0,
				"TEXTSTRING" : "ALJUNIED",
				"FONTNAME" : "Arial",
				"FONTSIZE" : 56.69,
				"BOLD" : 0,
				"ITALIC" : 0,
				"UNDERLINE" : 0,
				"VERTICALALIGNMENT" : 3,
				"HORIZONTALALIGNMENT" : 0,
				"XOFFSET" : 0,
				"YOFFSET" : 0,
				"ANGLE" : 10.069062,
				"FONTLEADING" : 0,
				"WORDSPACING" : 100,
				"CHARACTERWIDTH" : 100,
				"CHARACTERSPACING" : 0,
				"FLIPANGLE" : 0,
				"OVERRIDE" : 0,
				"INC_CRC" : "03C46A2F5A0570BA",
				"FMEL_UPD_D" : "20170412174630",
				"SHAPE.AREA" : 2160.18991132,
				"SHAPE.LEN" : 238.05459928379
			}
		},
		{
			"type" : "Feature",
			"geometry" : {
				"type" : "LineString",
				"coordinates" : [
					[ 103.83847527156888, 1.2816722600610424 ],
					[ 103.8396854502113, 1.2808912606953764 ]
				]
			},
			"properties" : {
				"OBJECTID" : 49,
				"FEATUREID" : -1,
				"ZORDER" : null,
				"ANNOTATIONCLASSID" : 0,
				"SYMBOLID" : -1,
				"STATUS" : 0,
				"TEXTSTRING" : "OUTRAM PARK ",
				"FONTNAME" : "Arial",
				"FONTSIZE" : 56.69,
				"BOLD" : 0,
				"ITALIC" : 0,
				"UNDERLINE" : 0,
				"VERTICALALIGNMENT" : 3,
				"HORIZONTALALIGNMENT" : 0,
				"XOFFSET" : 0,
				"YOFFSET" : 0,
				"ANGLE" : -32.66790201,
				"FONTLEADING" : 0,
				"WORDSPACING" : 100,
				"CHARACTERWIDTH" : 100,
				"CHARACTERSPACING" : 0,
				"FLIPANGLE" : 0,
				"OVERRIDE" : 0,
				"INC_CRC" : "D3CA8E793028B6DA",
				"FMEL_UPD_D" : "20170412174630",
				"SHAPE.AREA" : 3368.03485643,
				"SHAPE.LEN" : 346.174280335307
			}
		},
		{
			"type" : "Feature",
			"geometry" : {
				"type" : "LineString",
				"coordinates" : [
					[ 103.8709167418377, 1.3386478260473798 ],
					[ 103.8709272767876, 1.3397329556625523 ]
				]
			},
			"properties" : {
				"OBJECTID" : 51,
				"FEATUREID" : -1,
				"ZORDER" : null,
				"ANNOTATIONCLASSID" : 0,
				"SYMBOLID" : -1,
				"STATUS" : 0,
				"TEXTSTRING" : "WOODLEIGH",
				"FONTNAME" : "Arial",
				"FONTSIZE" : 56.69,
				"BOLD" : 0,
				"ITALIC" : 0,
				"UNDERLINE" : 0,
				"VERTICALALIGNMENT" : 3,
				"HORIZONTALALIGNMENT" : 0,
				"XOFFSET" : 0,
				"YOFFSET" : 0,
				"ANGLE" : 89.441048,
				"FONTLEADING" : 0,
				"WORDSPACING" : 100,
				"CHARACTERWIDTH" : 100,
				"CHARACTERSPACING" : 0,
				"FLIPANGLE" : 0,
				"OVERRIDE" : 0,
				"INC_CRC" : "2FCC8A97F8F989C6",
				"FMEL_UPD_D" : "20170412174630",
				"SHAPE.AREA" : 2780.47675398,
				"SHAPE.LEN" : 293.579269171661
			}
		},
		{
			"type" : "Feature",
			"geometry" : {
				"type" : "LineString",
				"coordinates" : [
					[ 103.8466592356674, 1.2881353294189797 ],
					[ 103.84705725100875, 1.2895256784636666 ]
				]
			},
			"properties" : {
				"OBJECTID" : 53,
				"FEATUREID" : -1,
				"ZORDER" : null,
				"ANNOTATIONCLASSID" : 0,
				"SYMBOLID" : -1,
				"STATUS" : 0,
				"TEXTSTRING" : "CLARKE QUAY ",
				"FONTNAME" : "Arial",
				"FONTSIZE" : 56.69,
				"BOLD" : 0,
				"ITALIC" : 0,
				"UNDERLINE" : 0,
				"VERTICALALIGNMENT" : 3,
				"HORIZONTALALIGNMENT" : 0,
				"XOFFSET" : 0,
				"YOFFSET" : 0,
				"ANGLE" : 73.92726315,
				"FONTLEADING" : 0,
				"WORDSPACING" : 100,
				"CHARACTERWIDTH" : 100,
				"CHARACTERSPACING" : 0,
				"FLIPANGLE" : 0,
				"OVERRIDE" : 0,
				"INC_CRC" : "D93D36DE5788E58B",
				"FMEL_UPD_D" : "20170412174630",
				"SHAPE.AREA" : 3261.34309304,
				"SHAPE.LEN" : 336.624005748521
			}
		},
		{
			"type" : "Feature",
			"geometry" : {
				"type" : "LineString",
				"coordinates" : [
					[ 103.95309482595779, 1.3433580040551536 ],
					[ 103.95347445402263, 1.3428916609957997 ]
				]
			},
			"properties" : {
				"OBJECTID" : 54,
				"FEATUREID" : -1,
				"ZORDER" : null,
				"ANNOTATIONCLASSID" : 0,
				"SYMBOLID" : -1,
				"STATUS" : 0,
				"TEXTSTRING" : "SIMEI",
				"FONTNAME" : "Arial",
				"FONTSIZE" : 56.69,
				"BOLD" : 0,
				"ITALIC" : 0,
				"UNDERLINE" : 0,
				"VERTICALALIGNMENT" : 3,
				"HORIZONTALALIGNMENT" : 0,
				"XOFFSET" : 0,
				"YOFFSET" : 0,
				"ANGLE" : -50.669037,
				"FONTLEADING" : 0,
				"WORDSPACING" : 100,
				"CHARACTERWIDTH" : 100,
				"CHARACTERSPACING" : 0,
				"FLIPANGLE" : 0,
				"OVERRIDE" : 0,
				"INC_CRC" : "4069DE36A378E18C",
				"FMEL_UPD_D" : "20170412174630",
				"SHAPE.AREA" : 1216.56888308,
				"SHAPE.LEN" : 153.586223580828
			}
		},
		{
			"type" : "Feature",
			"geometry" : {
				"type" : "LineString",
				"coordinates" : [
					[ 103.88499146614517, 1.3599888039146326 ],
					[ 103.88544347000149, 1.360384417247295 ]
				]
			},
			"properties" : {
				"OBJECTID" : 56,
				"FEATUREID" : -1,
				"ZORDER" : null,
				"ANNOTATIONCLASSID" : 0,
				"SYMBOLID" : -1,
				"STATUS" : 0,
				"TEXTSTRING" : "KOVAN",
				"FONTNAME" : "Arial",
				"FONTSIZE" : 56.69,
				"BOLD" : 0,
				"ITALIC" : 0,
				"UNDERLINE" : 0,
				"VERTICALALIGNMENT" : 3,
				"HORIZONTALALIGNMENT" : 0,
				"XOFFSET" : 0,
				"YOFFSET" : 0,
				"ANGLE" : 41.01250957,
				"FONTLEADING" : 0,
				"WORDSPACING" : 100,
				"CHARACTERWIDTH" : 100,
				"CHARACTERSPACING" : 0,
				"FLIPANGLE" : 0,
				"OVERRIDE" : 0,
				"INC_CRC" : "D4BC6DF6439E6229",
				"FMEL_UPD_D" : "20170412174630",
				"SHAPE.AREA" : 1531.1795466,
				"SHAPE.LEN" : 181.748790897478
			}
		},
		{
			"type" : "Feature",
			"geometry" : {
				"type" : "LineString",
				"coordinates" : [
					[ 103.76496555385613, 1.315403707332851 ],
					[ 103.76534949016616, 1.3145198845832926 ]
				]
			},
			"properties" : {
				"OBJECTID" : 58,
				"FEATUREID" : -1,
				"ZORDER" : null,
				"ANNOTATIONCLASSID" : 0,
				"SYMBOLID" : -1,
				"STATUS" : 0,
				"TEXTSTRING" : "CLEMENTI",
				"FONTNAME" : "Arial",
				"FONTSIZE" : 56.69,
				"BOLD" : 0,
				"ITALIC" : 0,
				"UNDERLINE" : 0,
				"VERTICALALIGNMENT" : 3,
				"HORIZONTALALIGNMENT" : 0,
				"XOFFSET" : 0,
				"YOFFSET" : 0,
				"ANGLE" : -66.385887,
				"FONTLEADING" : 0,
				"WORDSPACING" : 100,
				"CHARACTERWIDTH" : 100,
				"CHARACTERSPACING" : 0,
				"FLIPANGLE" : 0,
				"OVERRIDE" : 0,
				"INC_CRC" : "269E03A84EBB9EB2",
				"FMEL_UPD_D" : "20170412174630",
				"SHAPE.AREA" : 2259.242846865,
				"SHAPE.LEN" : 246.921307878197
			}
		},
		{
			"type" : "Feature",
			"geometry" : {
				"type" : "LineString",
				"coordinates" : [
					[ 103.81958331497997, 1.4488154969243818 ],
					[ 103.82063134849908, 1.4490706618372096 ]
				]
			},
			"properties" : {
				"OBJECTID" : 59,
				"FEATUREID" : -1,
				"ZORDER" : null,
				"ANNOTATIONCLASSID" : 0,
				"SYMBOLID" : -1,
				"STATUS" : 0,
				"TEXTSTRING" : "SEMBAWANG",
				"FONTNAME" : "Arial",
				"FONTSIZE" : 56.69,
				"BOLD" : 0,
				"ITALIC" : 0,
				"UNDERLINE" : 0,
				"VERTICALALIGNMENT" : 3,
				"HORIZONTALALIGNMENT" : 0,
				"XOFFSET" : 0,
				"YOFFSET" : 0,
				"ANGLE" : 13.599299,
				"FONTLEADING" : 0,
				"WORDSPACING" : 100,
				"CHARACTERWIDTH" : 100,
				"CHARACTERSPACING" : 0,
				"FLIPANGLE" : 0,
				"OVERRIDE" : 0,
				"INC_CRC" : "FC8925A9BB5CF93E",
				"FMEL_UPD_D" : "20170412174630",
				"SHAPE.AREA" : 2921.20630585,
				"SHAPE.LEN" : 306.176369785845
			}
		},
		{
			"type" : "Feature",
			"geometry" : {
				"type" : "LineString",
				"coordinates" : [
					[ 103.89246276098615, 1.3707415440679414 ],
					[ 103.8924789072107, 1.3715854171145 ]
				]
			},
			"properties" : {
				"OBJECTID" : 60,
				"FEATUREID" : -1,
				"ZORDER" : null,
				"ANNOTATIONCLASSID" : 0,
				"SYMBOLID" : -1,
				"STATUS" : 0,
				"TEXTSTRING" : "HOUGANG",
				"FONTNAME" : "Arial",
				"FONTSIZE" : 56.69,
				"BOLD" : 0,
				"ITALIC" : 0,
				"UNDERLINE" : 0,
				"VERTICALALIGNMENT" : 3,
				"HORIZONTALALIGNMENT" : 0,
				"XOFFSET" : 0,
				"YOFFSET" : 0,
				"ANGLE" : 88.898216,
				"FONTLEADING" : 0,
				"WORDSPACING" : 100,
				"CHARACTERWIDTH" : 100,
				"CHARACTERSPACING" : 0,
				"FLIPANGLE" : 0,
				"OVERRIDE" : 0,
				"INC_CRC" : "C45129C05CEA2F87",
				"FMEL_UPD_D" : "20170412174630",
				"SHAPE.AREA" : 2308.776523955,
				"SHAPE.LEN" : 251.35497016744
			}
		},
		{
			"type" : "Feature",
			"geometry" : {
				"type" : "LineString",
				"coordinates" : [
					[ 103.87337179719995, 1.3490149485559901 ],
					[ 103.87408326085517, 1.3498303505587066 ]
				]
			},
			"properties" : {
				"OBJECTID" : 62,
				"FEATUREID" : -1,
				"ZORDER" : null,
				"ANNOTATIONCLASSID" : 0,
				"SYMBOLID" : -1,
				"STATUS" : 0,
				"TEXTSTRING" : "SERANGOON",
				"FONTNAME" : "Arial",
				"FONTSIZE" : 56.69,
				"BOLD" : 0,
				"ITALIC" : 0,
				"UNDERLINE" : 0,
				"VERTICALALIGNMENT" : 3,
				"HORIZONTALALIGNMENT" : 0,
				"XOFFSET" : 0,
				"YOFFSET" : 0,
				"ANGLE" : 48.71249,
				"FONTLEADING" : 0,
				"WORDSPACING" : 100,
				"CHARACTERWIDTH" : 100,
				"CHARACTERSPACING" : 0,
				"FLIPANGLE" : 0,
				"OVERRIDE" : 0,
				"INC_CRC" : "A872735737FFED2B",
				"FMEL_UPD_D" : "20170412174630",
				"SHAPE.AREA" : 2904.83532288,
				"SHAPE.LEN" : 304.711473041867
			}
		},
		{
			"type" : "Feature",
			"geometry" : {
				"type" : "LineString",
				"coordinates" : [
					[ 103.77829003473401, 1.311469866359003 ],
					[ 103.77890528391073, 1.3110957825331933 ]
				]
			},
			"properties" : {
				"OBJECTID" : 65,
				"FEATUREID" : -1,
				"ZORDER" : null,
				"ANNOTATIONCLASSID" : 0,
				"SYMBOLID" : -1,
				"STATUS" : 0,
				"TEXTSTRING" : "DOVER ",
				"FONTNAME" : "Arial",
				"FONTSIZE" : 56.69,
				"BOLD" : 0,
				"ITALIC" : 0,
				"UNDERLINE" : 0,
				"VERTICALALIGNMENT" : 3,
				"HORIZONTALALIGNMENT" : 0,
				"XOFFSET" : 0,
				"YOFFSET" : 0,
				"ANGLE" : -31.137848,
				"FONTLEADING" : 0,
				"WORDSPACING" : 100,
				"CHARACTERWIDTH" : 100,
				"CHARACTERSPACING" : 0,
				"FLIPANGLE" : 0,
				"OVERRIDE" : 0,
				"INC_CRC" : "E0F2E889B5D5AABF",
				"FMEL_UPD_D" : "20170412174630",
				"SHAPE.AREA" : 1713.14815153,
				"SHAPE.LEN" : 198.037258843088
			}
		},
		{
			"type" : "Feature",
			"geometry" : {
				"type" : "LineString",
				"coordinates" : [
					[ 103.85153042333174, 1.2833853322658186 ],
					[ 103.8516849717321, 1.284945080319347 ]
				]
			},
			"properties" : {
				"OBJECTID" : 66,
				"FEATUREID" : -1,
				"ZORDER" : null,
				"ANNOTATIONCLASSID" : 0,
				"SYMBOLID" : -1,
				"STATUS" : 0,
				"TEXTSTRING" : "RAFFLES PLACE",
				"FONTNAME" : "Arial",
				"FONTSIZE" : 56.69,
				"BOLD" : 0,
				"ITALIC" : 0,
				"UNDERLINE" : 0,
				"VERTICALALIGNMENT" : 3,
				"HORIZONTALALIGNMENT" : 0,
				"XOFFSET" : 0,
				"YOFFSET" : 0,
				"ANGLE" : 84.30525337,
				"FONTLEADING" : 0,
				"WORDSPACING" : 100,
				"CHARACTERWIDTH" : 100,
				"CHARACTERSPACING" : 0,
				"FLIPANGLE" : 0,
				"OVERRIDE" : 0,
				"INC_CRC" : "3F311F628FE18230",
				"FMEL_UPD_D" : "20170412174630",
				"SHAPE.AREA" : 3600.61325382,
				"SHAPE.LEN" : 366.993630588092
			}
		},
		{
			"type" : "Feature",
			"geometry" : {
				"type" : "LineString",
				"coordinates" : [
					[ 103.92982071822622, 1.3238472199681335 ],
					[ 103.93041344988896, 1.3239342373341338 ]
				]
			},
			"properties" : {
				"OBJECTID" : 67,
				"FEATUREID" : -1,
				"ZORDER" : null,
				"ANNOTATIONCLASSID" : 0,
				"SYMBOLID" : -1,
				"STATUS" : 0,
				"TEXTSTRING" : "BEDOK",
				"FONTNAME" : "Arial",
				"FONTSIZE" : 56.69,
				"BOLD" : 0,
				"ITALIC" : 0,
				"UNDERLINE" : 0,
				"VERTICALALIGNMENT" : 3,
				"HORIZONTALALIGNMENT" : 0,
				"XOFFSET" : 0,
				"YOFFSET" : 0,
				"ANGLE" : 8.301103,
				"FONTLEADING" : 0,
				"WORDSPACING" : 100,
				"CHARACTERWIDTH" : 100,
				"CHARACTERSPACING" : 0,
				"FLIPANGLE" : 0,
				"OVERRIDE" : 0,
				"INC_CRC" : "DA59910024CB9D84",
				"FMEL_UPD_D" : "20170412174630",
				"SHAPE.AREA" : 1564.33946227,
				"SHAPE.LEN" : 184.717280593791
			}
		},
		{
			"type" : "Feature",
			"geometry" : {
				"type" : "LineString",
				"coordinates" : [
					[ 103.75197917342862, 1.358194552969829 ],
					[ 103.75198844520946, 1.359279757032895 ]
				]
			},
			"properties" : {
				"OBJECTID" : 69,
				"FEATUREID" : -1,
				"ZORDER" : null,
				"ANNOTATIONCLASSID" : 0,
				"SYMBOLID" : -1,
				"STATUS" : 0,
				"TEXTSTRING" : "BUKIT GOMBAK",
				"FONTNAME" : "Arial",
				"FONTSIZE" : 42.52,
				"BOLD" : 0,
				"ITALIC" : 0,
				"UNDERLINE" : 0,
				"VERTICALALIGNMENT" : 3,
				"HORIZONTALALIGNMENT" : 0,
				"XOFFSET" : 0,
				"YOFFSET" : 0,
				"ANGLE" : 89.5054,
				"FONTLEADING" : 0,
				"WORDSPACING" : 100,
				"CHARACTERWIDTH" : 100,
				"CHARACTERSPACING" : 0,
				"FLIPANGLE" : 0,
				"OVERRIDE" : 0,
				"INC_CRC" : "17D8C690A1D15D48",
				"FMEL_UPD_D" : "20170412174630",
				"SHAPE.AREA" : 1908.978732185,
				"SHAPE.LEN" : 261.345238233862
			}
		},
		{
			"type" : "Feature",
			"geometry" : {
				"type" : "LineString",
				"coordinates" : [
					[ 103.84975434172287, 1.3068823331010277 ],
					[ 103.8506280171328, 1.308031385889332 ]
				]
			},
			"properties" : {
				"OBJECTID" : 72,
				"FEATUREID" : -1,
				"ZORDER" : null,
				"ANNOTATIONCLASSID" : 0,
				"SYMBOLID" : -1,
				"STATUS" : 0,
				"TEXTSTRING" : "LITTLE INDIA",
				"FONTNAME" : "Arial",
				"FONTSIZE" : 56.69,
				"BOLD" : 0,
				"ITALIC" : 0,
				"UNDERLINE" : 0,
				"VERTICALALIGNMENT" : 3,
				"HORIZONTALALIGNMENT" : 0,
				"XOFFSET" : 0,
				"YOFFSET" : 0,
				"ANGLE" : 52.57476889,
				"FONTLEADING" : 0,
				"WORDSPACING" : 100,
				"CHARACTERWIDTH" : 100,
				"CHARACTERSPACING" : 0,
				"FLIPANGLE" : 0,
				"OVERRIDE" : 0,
				"INC_CRC" : "FDB7F2204287A30B",
				"FMEL_UPD_D" : "20170412174630",
				"SHAPE.AREA" : 2780.90658081,
				"SHAPE.LEN" : 293.618232486294
			}
		},
		{
			"type" : "Feature",
			"geometry" : {
				"type" : "LineString",
				"coordinates" : [
					[ 103.89535401279342, 1.3911942404386644 ],
					[ 103.8956005751496, 1.391873849465959 ]
				]
			},
			"properties" : {
				"OBJECTID" : 73,
				"FEATUREID" : -1,
				"ZORDER" : null,
				"ANNOTATIONCLASSID" : 0,
				"SYMBOLID" : -1,
				"STATUS" : 0,
				"TEXTSTRING" : "SENGKANG",
				"FONTNAME" : "Arial",
				"FONTSIZE" : 42.52,
				"BOLD" : 0,
				"ITALIC" : 0,
				"UNDERLINE" : 0,
				"VERTICALALIGNMENT" : 3,
				"HORIZONTALALIGNMENT" : 0,
				"XOFFSET" : 0,
				"YOFFSET" : 0,
				"ANGLE" : 69.94253947,
				"FONTLEADING" : 0,
				"WORDSPACING" : 100,
				"CHARACTERWIDTH" : 100,
				"CHARACTERSPACING" : 0,
				"FLIPANGLE" : 0,
				"OVERRIDE" : 0,
				"INC_CRC" : "5F355605EC9073E9",
				"FMEL_UPD_D" : "20170412174630",
				"SHAPE.AREA" : 1424.764084765,
				"SHAPE.LEN" : 203.556530479713
			}
		},
		{
			"type" : "Feature",
			"geometry" : {
				"type" : "LineString",
				"coordinates" : [
					[ 103.90210400591496, 1.404331663598896 ],
					[ 103.90249424249855, 1.4050787479009574 ]
				]
			},
			"properties" : {
				"OBJECTID" : 74,
				"FEATUREID" : -1,
				"ZORDER" : null,
				"ANNOTATIONCLASSID" : 0,
				"SYMBOLID" : -1,
				"STATUS" : 0,
				"TEXTSTRING" : "PUNGGOL",
				"FONTNAME" : "Arial",
				"FONTSIZE" : 56.69,
				"BOLD" : 0,
				"ITALIC" : 0,
				"UNDERLINE" : 0,
				"VERTICALALIGNMENT" : 3,
				"HORIZONTALALIGNMENT" : 0,
				"XOFFSET" : 0,
				"YOFFSET" : 0,
				"ANGLE" : 62.2705022,
				"FONTLEADING" : 0,
				"WORDSPACING" : 100,
				"CHARACTERWIDTH" : 100,
				"CHARACTERSPACING" : 0,
				"FLIPANGLE" : 0,
				"OVERRIDE" : 0,
				"INC_CRC" : "D20581249306EBE4",
				"FMEL_UPD_D" : "20170412174630",
				"SHAPE.AREA" : 2234.59212421,
				"SHAPE.LEN" : 244.714478261994
			}
		},
		{
			"type" : "Feature",
			"geometry" : {
				"type" : "LineString",
				"coordinates" : [
					[ 103.85394286179007, 1.3120765162488541 ],
					[ 103.8544717294809, 1.312566468624949 ]
				]
			},
			"properties" : {
				"OBJECTID" : 80,
				"FEATUREID" : -1,
				"ZORDER" : null,
				"ANNOTATIONCLASSID" : 0,
				"SYMBOLID" : -1,
				"STATUS" : 0,
				"TEXTSTRING" : "FARRER",
				"FONTNAME" : "Arial",
				"FONTSIZE" : 56.69,
				"BOLD" : 0,
				"ITALIC" : 0,
				"UNDERLINE" : 0,
				"VERTICALALIGNMENT" : 3,
				"HORIZONTALALIGNMENT" : 0,
				"XOFFSET" : 0,
				"YOFFSET" : 0,
				"ANGLE" : 42.62882191,
				"FONTLEADING" : 0,
				"WORDSPACING" : 100,
				"CHARACTERWIDTH" : 100,
				"CHARACTERSPACING" : 0,
				"FLIPANGLE" : 0,
				"OVERRIDE" : 0,
				"INC_CRC" : "D8266D215C47BB3D",
				"FMEL_UPD_D" : "20170412174630",
				"SHAPE.AREA" : 1812.414605075,
				"SHAPE.LEN" : 206.923313199962
			}
		},
		{
			"type" : "Feature",
			"geometry" : {
				"type" : "LineString",
				"coordinates" : [
					[ 103.81632743001856, 1.289715787134119 ],
					[ 103.81696335209789, 1.2893784557182002 ]
				]
			},
			"properties" : {
				"OBJECTID" : 15,
				"FEATUREID" : -1,
				"ZORDER" : null,
				"ANNOTATIONCLASSID" : 0,
				"SYMBOLID" : -1,
				"STATUS" : 0,
				"TEXTSTRING" : "REDHILL ",
				"FONTNAME" : "Arial",
				"FONTSIZE" : 42.52,
				"BOLD" : 0,
				"ITALIC" : 0,
				"UNDERLINE" : 0,
				"VERTICALALIGNMENT" : 3,
				"HORIZONTALALIGNMENT" : 0,
				"XOFFSET" : 0,
				"YOFFSET" : 0,
				"ANGLE" : 332.2084,
				"FONTLEADING" : 0,
				"WORDSPACING" : 100,
				"CHARACTERWIDTH" : 100,
				"CHARACTERSPACING" : 0,
				"FLIPANGLE" : 0,
				"OVERRIDE" : 0,
				"INC_CRC" : "A50CE67A12F0E75F",
				"FMEL_UPD_D" : "20170412174629",
				"SHAPE.AREA" : 1122.21108541,
				"SHAPE.LEN" : 167.44776558593
			}
		},
		{
			"type" : "Feature",
			"geometry" : {
				"type" : "LineString",
				"coordinates" : [
					[ 103.85549692323637, 1.300009449725682 ],
					[ 103.85596529040203, 1.3005582374482174 ]
				]
			},
			"properties" : {
				"OBJECTID" : 20,
				"FEATUREID" : -1,
				"ZORDER" : null,
				"ANNOTATIONCLASSID" : 0,
				"SYMBOLID" : -1,
				"STATUS" : 0,
				"TEXTSTRING" : "BUGIS ",
				"FONTNAME" : "Arial",
				"FONTSIZE" : 56.69,
				"BOLD" : 0,
				"ITALIC" : 0,
				"UNDERLINE" : 0,
				"VERTICALALIGNMENT" : 3,
				"HORIZONTALALIGNMENT" : 0,
				"XOFFSET" : 0,
				"YOFFSET" : 0,
				"ANGLE" : 49.33840866,
				"FONTLEADING" : 0,
				"WORDSPACING" : 100,
				"CHARACTERWIDTH" : 100,
				"CHARACTERSPACING" : 0,
				"FLIPANGLE" : 0,
				"OVERRIDE" : 0,
				"INC_CRC" : "4F7A3AA4D473E977",
				"FMEL_UPD_D" : "20170412174629",
				"SHAPE.AREA" : 1514.60392518,
				"SHAPE.LEN" : 180.264754842454
			}
		},
		{
			"type" : "Feature",
			"geometry" : {
				"type" : "LineString",
				"coordinates" : [
					[ 103.83225981436615, 1.3033255697764508 ],
					[ 103.8322266136976, 1.3042895970018071 ]
				]
			},
			"properties" : {
				"OBJECTID" : 30,
				"FEATUREID" : -1,
				"ZORDER" : null,
				"ANNOTATIONCLASSID" : 0,
				"SYMBOLID" : -1,
				"STATUS" : 0,
				"TEXTSTRING" : "ORCHARD ",
				"FONTNAME" : "Arial",
				"FONTSIZE" : 56.69,
				"BOLD" : 0,
				"ITALIC" : 0,
				"UNDERLINE" : 0,
				"VERTICALALIGNMENT" : 3,
				"HORIZONTALALIGNMENT" : 0,
				"XOFFSET" : 0,
				"YOFFSET" : 0,
				"ANGLE" : 91.98519897,
				"FONTLEADING" : 0,
				"WORDSPACING" : 100,
				"CHARACTERWIDTH" : 100,
				"CHARACTERSPACING" : 0,
				"FLIPANGLE" : 0,
				"OVERRIDE" : 0,
				"INC_CRC" : "BE762F58A5B79FF0",
				"FMEL_UPD_D" : "20170412174629",
				"SHAPE.AREA" : 2383.16828044,
				"SHAPE.LEN" : 258.014659079772
			}
		},
		{
			"type" : "Feature",
			"geometry" : {
				"type" : "LineString",
				"coordinates" : [
					[ 103.84920121557116, 1.3704264807586666 ],
					[ 103.84979349782871, 1.3693783808866833 ]
				]
			},
			"properties" : {
				"OBJECTID" : 35,
				"FEATUREID" : -1,
				"ZORDER" : null,
				"ANNOTATIONCLASSID" : 0,
				"SYMBOLID" : -1,
				"STATUS" : 0,
				"TEXTSTRING" : "ANG MO KIO",
				"FONTNAME" : "Arial",
				"FONTSIZE" : 56.69,
				"BOLD" : 0,
				"ITALIC" : 0,
				"UNDERLINE" : 0,
				"VERTICALALIGNMENT" : 3,
				"HORIZONTALALIGNMENT" : 0,
				"XOFFSET" : 0,
				"YOFFSET" : 0,
				"ANGLE" : 299.629211,
				"FONTLEADING" : 0,
				"WORDSPACING" : 100,
				"CHARACTERWIDTH" : 100,
				"CHARACTERSPACING" : 0,
				"FLIPANGLE" : 0,
				"OVERRIDE" : 0,
				"INC_CRC" : "C83F8C9B6B964799",
				"FMEL_UPD_D" : "20170412174629",
				"SHAPE.AREA" : 2706.07780127,
				"SHAPE.LEN" : 286.919394513863
			}
		},
		{
			"type" : "Feature",
			"geometry" : {
				"type" : "LineString",
				"coordinates" : [
					[ 103.76197845149957, 1.4250160701415513 ],
					[ 103.76255019030434, 1.4254545747091723 ]
				]
			},
			"properties" : {
				"OBJECTID" : 43,
				"FEATUREID" : -1,
				"ZORDER" : null,
				"ANNOTATIONCLASSID" : 0,
				"SYMBOLID" : -1,
				"STATUS" : 0,
				"TEXTSTRING" : "KRANJI",
				"FONTNAME" : "Arial",
				"FONTSIZE" : 56.69,
				"BOLD" : 0,
				"ITALIC" : 0,
				"UNDERLINE" : 0,
				"VERTICALALIGNMENT" : 3,
				"HORIZONTALALIGNMENT" : 0,
				"XOFFSET" : 0,
				"YOFFSET" : 0,
				"ANGLE" : 37.308212,
				"FONTLEADING" : 0,
				"WORDSPACING" : 100,
				"CHARACTERWIDTH" : 100,
				"CHARACTERSPACING" : 0,
				"FLIPANGLE" : 0,
				"OVERRIDE" : 0,
				"INC_CRC" : "93E5B7E72943F66E",
				"FMEL_UPD_D" : "20170412174630",
				"SHAPE.AREA" : 1588.99412133,
				"SHAPE.LEN" : 186.924189638581
			}
		},
		{
			"type" : "Feature",
			"geometry" : {
				"type" : "LineString",
				"coordinates" : [
					[ 103.84737938009523, 1.3329983954188829 ],
					[ 103.847658436034, 1.331950188793787 ]
				]
			},
			"properties" : {
				"OBJECTID" : 48,
				"FEATUREID" : -1,
				"ZORDER" : null,
				"ANNOTATIONCLASSID" : 0,
				"SYMBOLID" : -1,
				"STATUS" : 0,
				"TEXTSTRING" : "TOA PAYOH",
				"FONTNAME" : "Arial",
				"FONTSIZE" : 56.69,
				"BOLD" : 0,
				"ITALIC" : 0,
				"UNDERLINE" : 0,
				"VERTICALALIGNMENT" : 3,
				"HORIZONTALALIGNMENT" : 0,
				"XOFFSET" : 0,
				"YOFFSET" : 0,
				"ANGLE" : 285,
				"FONTLEADING" : 0,
				"WORDSPACING" : 100,
				"CHARACTERWIDTH" : 100,
				"CHARACTERSPACING" : 0,
				"FLIPANGLE" : 0,
				"OVERRIDE" : 0,
				"INC_CRC" : "5C44C2F67F076DEC",
				"FMEL_UPD_D" : "20170412174630",
				"SHAPE.AREA" : 2507.9651349,
				"SHAPE.LEN" : 269.185877826314
			}
		},
		{
			"type" : "Feature",
			"geometry" : {
				"type" : "LineString",
				"coordinates" : [
					[ 103.84815431704159, 1.3505413970280575 ],
					[ 103.84831284816609, 1.351247037527035 ]
				]
			},
			"properties" : {
				"OBJECTID" : 50,
				"FEATUREID" : -1,
				"ZORDER" : null,
				"ANNOTATIONCLASSID" : 0,
				"SYMBOLID" : -1,
				"STATUS" : 0,
				"TEXTSTRING" : "BISHAN",
				"FONTNAME" : "Arial",
				"FONTSIZE" : 56.69,
				"BOLD" : 0,
				"ITALIC" : 0,
				"UNDERLINE" : 0,
				"VERTICALALIGNMENT" : 3,
				"HORIZONTALALIGNMENT" : 0,
				"XOFFSET" : 0,
				"YOFFSET" : 0,
				"ANGLE" : 77.259277,
				"FONTLEADING" : 0,
				"WORDSPACING" : 100,
				"CHARACTERWIDTH" : 100,
				"CHARACTERSPACING" : 0,
				"FLIPANGLE" : 0,
				"OVERRIDE" : 0,
				"INC_CRC" : "762C2B262F5FF184",
				"FMEL_UPD_D" : "20170412174630",
				"SHAPE.AREA" : 1663.613478065,
				"SHAPE.LEN" : 193.603612296428
			}
		},
		{
			"type" : "Feature",
			"geometry" : {
				"type" : "LineString",
				"coordinates" : [
					[ 103.84686972500995, 1.3399811676082325 ],
					[ 103.84691958078092, 1.3409444674974191 ]
				]
			},
			"properties" : {
				"OBJECTID" : 55,
				"FEATUREID" : -1,
				"ZORDER" : null,
				"ANNOTATIONCLASSID" : 0,
				"SYMBOLID" : -1,
				"STATUS" : 0,
				"TEXTSTRING" : "BRADDELL",
				"FONTNAME" : "Arial",
				"FONTSIZE" : 56.69,
				"BOLD" : 0,
				"ITALIC" : 0,
				"UNDERLINE" : 0,
				"VERTICALALIGNMENT" : 3,
				"HORIZONTALALIGNMENT" : 0,
				"XOFFSET" : 0,
				"YOFFSET" : 0,
				"ANGLE" : 87.018501,
				"FONTLEADING" : 0,
				"WORDSPACING" : 100,
				"CHARACTERWIDTH" : 100,
				"CHARACTERSPACING" : 0,
				"FLIPANGLE" : 0,
				"OVERRIDE" : 0,
				"INC_CRC" : "DE71FBD3E83DED65",
				"FMEL_UPD_D" : "20170412174630",
				"SHAPE.AREA" : 2359.17151586,
				"SHAPE.LEN" : 255.866350335445
			}
		},
		{
			"type" : "Feature",
			"geometry" : {
				"type" : "LineString",
				"coordinates" : [
					[ 103.72055382593511, 1.3440563530985985 ],
					[ 103.72148344069313, 1.3442910404281811 ]
				]
			},
			"properties" : {
				"OBJECTID" : 57,
				"FEATUREID" : -1,
				"ZORDER" : null,
				"ANNOTATIONCLASSID" : 0,
				"SYMBOLID" : -1,
				"STATUS" : 0,
				"TEXTSTRING" : "LAKESIDE",
				"FONTNAME" : "Arial",
				"FONTSIZE" : 56.69,
				"BOLD" : 0,
				"ITALIC" : 0,
				"UNDERLINE" : 0,
				"VERTICALALIGNMENT" : 3,
				"HORIZONTALALIGNMENT" : 0,
				"XOFFSET" : 0,
				"YOFFSET" : 0,
				"ANGLE" : 14.078706,
				"FONTLEADING" : 0,
				"WORDSPACING" : 100,
				"CHARACTERWIDTH" : 100,
				"CHARACTERSPACING" : 0,
				"FLIPANGLE" : 0,
				"OVERRIDE" : 0,
				"INC_CRC" : "8973AE2D62A4DC36",
				"FMEL_UPD_D" : "20170412174630",
				"SHAPE.AREA" : 2185.4976903,
				"SHAPE.LEN" : 240.320031131457
			}
		},
		{
			"type" : "Feature",
			"geometry" : {
				"type" : "LineString",
				"coordinates" : [
					[ 103.87095472430653, 1.3110634312406382 ],
					[ 103.87166032512438, 1.311519554893919 ]
				]
			},
			"properties" : {
				"OBJECTID" : 61,
				"FEATUREID" : -1,
				"ZORDER" : null,
				"ANNOTATIONCLASSID" : 0,
				"SYMBOLID" : -1,
				"STATUS" : 0,
				"TEXTSTRING" : "KALLANG",
				"FONTNAME" : "Arial",
				"FONTSIZE" : 56.69,
				"BOLD" : 0,
				"ITALIC" : 0,
				"UNDERLINE" : 0,
				"VERTICALALIGNMENT" : 3,
				"HORIZONTALALIGNMENT" : 0,
				"XOFFSET" : 0,
				"YOFFSET" : 0,
				"ANGLE" : 32.712528,
				"FONTLEADING" : 0,
				"WORDSPACING" : 100,
				"CHARACTERWIDTH" : 100,
				"CHARACTERSPACING" : 0,
				"FLIPANGLE" : 0,
				"OVERRIDE" : 0,
				"INC_CRC" : "9899EDE6178BC50F",
				"FMEL_UPD_D" : "20170412174630",
				"SHAPE.AREA" : 2061.357511985,
				"SHAPE.LEN" : 229.207495393952
			}
		},
		{
			"type" : "Feature",
			"geometry" : {
				"type" : "LineString",
				"coordinates" : [
					[ 103.70568220902301, 1.3383608313657378 ],
					[ 103.70658440522769, 1.3386863307438355 ]
				]
			},
			"properties" : {
				"OBJECTID" : 64,
				"FEATUREID" : -1,
				"ZORDER" : null,
				"ANNOTATIONCLASSID" : 0,
				"SYMBOLID" : -1,
				"STATUS" : 0,
				"TEXTSTRING" : "BOON LAY",
				"FONTNAME" : "Arial",
				"FONTSIZE" : 56.69,
				"BOLD" : 0,
				"ITALIC" : 0,
				"UNDERLINE" : 0,
				"VERTICALALIGNMENT" : 3,
				"HORIZONTALALIGNMENT" : 0,
				"XOFFSET" : 0,
				"YOFFSET" : 0,
				"ANGLE" : 19.71823515,
				"FONTLEADING" : 0,
				"WORDSPACING" : 100,
				"CHARACTERWIDTH" : 100,
				"CHARACTERSPACING" : 0,
				"FLIPANGLE" : 0,
				"OVERRIDE" : 0,
				"INC_CRC" : "75F5E502BEA6E183",
				"FMEL_UPD_D" : "20170412174630",
				"SHAPE.AREA" : 2251.38455573,
				"SHAPE.LEN" : 246.218067241631
			}
		},
		{
			"type" : "Feature",
			"geometry" : {
				"type" : "LineString",
				"coordinates" : [
					[ 103.96148628343911, 1.3342290933169338 ],
					[ 103.96174299528285, 1.3346363517755253 ]
				]
			},
			"properties" : {
				"OBJECTID" : 68,
				"FEATUREID" : -1,
				"ZORDER" : null,
				"ANNOTATIONCLASSID" : 0,
				"SYMBOLID" : -1,
				"STATUS" : 0,
				"TEXTSTRING" : "EXPO",
				"FONTNAME" : "Arial",
				"FONTSIZE" : 56.69,
				"BOLD" : 0,
				"ITALIC" : 0,
				"UNDERLINE" : 0,
				"VERTICALALIGNMENT" : 3,
				"HORIZONTALALIGNMENT" : 0,
				"XOFFSET" : 0,
				"YOFFSET" : 0,
				"ANGLE" : 57.611328,
				"FONTLEADING" : 0,
				"WORDSPACING" : 100,
				"CHARACTERWIDTH" : 100,
				"CHARACTERSPACING" : 0,
				"FLIPANGLE" : 0,
				"OVERRIDE" : 0,
				"INC_CRC" : "058D0DDBA750B1D8",
				"FMEL_UPD_D" : "20170412174630",
				"SHAPE.AREA" : 1241.656526165,
				"SHAPE.LEN" : 155.832046821086
			}
		},
		{
			"type" : "Feature",
			"geometry" : {
				"type" : "LineString",
				"coordinates" : [
					[ 103.80048833999129, 1.4402458428523386 ],
					[ 103.8014731298171, 1.4406877920994359 ]
				]
			},
			"properties" : {
				"OBJECTID" : 70,
				"FEATUREID" : -1,
				"ZORDER" : null,
				"ANNOTATIONCLASSID" : 0,
				"SYMBOLID" : -1,
				"STATUS" : 0,
				"TEXTSTRING" : "ADMIRALTY",
				"FONTNAME" : "Arial",
				"FONTSIZE" : 56.69,
				"BOLD" : 0,
				"ITALIC" : 0,
				"UNDERLINE" : 0,
				"VERTICALALIGNMENT" : 3,
				"HORIZONTALALIGNMENT" : 0,
				"XOFFSET" : 0,
				"YOFFSET" : 0,
				"ANGLE" : 24.031935,
				"FONTLEADING" : 0,
				"WORDSPACING" : 100,
				"CHARACTERWIDTH" : 100,
				"CHARACTERSPACING" : 0,
				"FLIPANGLE" : 0,
				"OVERRIDE" : 0,
				"INC_CRC" : "DC9C9F7D0E0FA45C",
				"FMEL_UPD_D" : "20170412174630",
				"SHAPE.AREA" : 2524.11195926,
				"SHAPE.LEN" : 270.631144277952
			}
		},
		{
			"type" : "Feature",
			"geometry" : {
				"type" : "LineString",
				"coordinates" : [
					[ 103.82079130733827, 1.2652113042185478 ],
					[ 103.82222542624308, 1.2653116284763986 ]
				]
			},
			"properties" : {
				"OBJECTID" : 75,
				"FEATUREID" : -1,
				"ZORDER" : null,
				"ANNOTATIONCLASSID" : 0,
				"SYMBOLID" : -1,
				"STATUS" : 0,
				"TEXTSTRING" : "HARBOURFRONT",
				"FONTNAME" : "Arial",
				"FONTSIZE" : 56.69,
				"BOLD" : 0,
				"ITALIC" : 0,
				"UNDERLINE" : 0,
				"VERTICALALIGNMENT" : 3,
				"HORIZONTALALIGNMENT" : 0,
				"XOFFSET" : 0,
				"YOFFSET" : 0,
				"ANGLE" : 3.97564175,
				"FONTLEADING" : 0,
				"WORDSPACING" : 100,
				"CHARACTERWIDTH" : 100,
				"CHARACTERSPACING" : 0,
				"FLIPANGLE" : 0,
				"OVERRIDE" : 0,
				"INC_CRC" : "B51F4228F6736CD0",
				"FMEL_UPD_D" : "20170412174630",
				"SHAPE.AREA" : 3773.19180809,
				"SHAPE.LEN" : 382.441994701461
			}
		},
		{
			"type" : "Feature",
			"geometry" : {
				"type" : "LineString",
				"coordinates" : [
					[ 103.74451607206387, 1.384592348952009 ],
					[ 103.7444205662976, 1.3857640937568936 ]
				]
			},
			"properties" : {
				"OBJECTID" : 8,
				"FEATUREID" : -1,
				"ZORDER" : null,
				"ANNOTATIONCLASSID" : 0,
				"SYMBOLID" : -1,
				"STATUS" : 0,
				"TEXTSTRING" : "CHOA CHU KANG",
				"FONTNAME" : "Arial",
				"FONTSIZE" : 42.52,
				"BOLD" : 0,
				"ITALIC" : 0,
				"UNDERLINE" : 0,
				"VERTICALALIGNMENT" : 3,
				"HORIZONTALALIGNMENT" : 0,
				"XOFFSET" : 0,
				"YOFFSET" : 0,
				"ANGLE" : 94.68745753,
				"FONTLEADING" : 0,
				"WORDSPACING" : 100,
				"CHARACTERWIDTH" : 100,
				"CHARACTERSPACING" : 0,
				"FLIPANGLE" : 0,
				"OVERRIDE" : 0,
				"INC_CRC" : "ED50295FC6C8F6A5",
				"FMEL_UPD_D" : "20170412174630",
				"SHAPE.AREA" : 2109.04276497,
				"SHAPE.LEN" : 285.22239405865
			}
		},
		{
			"type" : "Feature",
			"geometry" : {
				"type" : "LineString",
				"coordinates" : [
					[ 103.82633938326389, 1.2862393839067667 ],
					[ 103.82774350423027, 1.285928985301638 ]
				]
			},
			"properties" : {
				"OBJECTID" : 13,
				"FEATUREID" : -1,
				"ZORDER" : null,
				"ANNOTATIONCLASSID" : 0,
				"SYMBOLID" : -1,
				"STATUS" : 0,
				"TEXTSTRING" : "TIONG BAHRU ",
				"FONTNAME" : "Arial",
				"FONTSIZE" : 56.69,
				"BOLD" : 0,
				"ITALIC" : 0,
				"UNDERLINE" : 0,
				"VERTICALALIGNMENT" : 3,
				"HORIZONTALALIGNMENT" : 0,
				"XOFFSET" : 0,
				"YOFFSET" : 0,
				"ANGLE" : 347.612183,
				"FONTLEADING" : 0,
				"WORDSPACING" : 100,
				"CHARACTERWIDTH" : 100,
				"CHARACTERSPACING" : 0,
				"FLIPANGLE" : 0,
				"OVERRIDE" : 0,
				"INC_CRC" : "C088B28E089D72D4",
				"FMEL_UPD_D" : "20170412174630",
				"SHAPE.AREA" : 3227.303618565,
				"SHAPE.LEN" : 333.577263675265
			}
		},
		{
			"type" : "Feature",
			"geometry" : {
				"type" : "LineString",
				"coordinates" : [
					[ 103.8925739582276, 1.3179726342454579 ],
					[ 103.89376380767577, 1.3181130990413479 ]
				]
			},
			"properties" : {
				"OBJECTID" : 37,
				"FEATUREID" : -1,
				"ZORDER" : null,
				"ANNOTATIONCLASSID" : 0,
				"SYMBOLID" : -1,
				"STATUS" : 0,
				"TEXTSTRING" : "PAYA LEBAR",
				"FONTNAME" : "Arial",
				"FONTSIZE" : 56.69,
				"BOLD" : 0,
				"ITALIC" : 0,
				"UNDERLINE" : 0,
				"VERTICALALIGNMENT" : 3,
				"HORIZONTALALIGNMENT" : 0,
				"XOFFSET" : 0,
				"YOFFSET" : 0,
				"ANGLE" : 6.691245,
				"FONTLEADING" : 0,
				"WORDSPACING" : 100,
				"CHARACTERWIDTH" : 100,
				"CHARACTERSPACING" : 0,
				"FLIPANGLE" : 0,
				"OVERRIDE" : 0,
				"INC_CRC" : "AACFC2756345E5CE",
				"FMEL_UPD_D" : "20170412174630",
				"SHAPE.AREA" : 2657.414355845,
				"SHAPE.LEN" : 282.563998176284
			}
		},
		{
			"type" : "Feature",
			"geometry" : {
				"type" : "LineString",
				"coordinates" : [
					[ 103.94478634823427, 1.3536158905706765 ],
					[ 103.94539393795408, 1.3528698917443356 ]
				]
			},
			"properties" : {
				"OBJECTID" : 41,
				"FEATUREID" : -1,
				"ZORDER" : null,
				"ANNOTATIONCLASSID" : 0,
				"SYMBOLID" : -1,
				"STATUS" : 0,
				"TEXTSTRING" : "TAMPINES",
				"FONTNAME" : "Arial",
				"FONTSIZE" : 56.69,
				"BOLD" : 0,
				"ITALIC" : 0,
				"UNDERLINE" : 0,
				"VERTICALALIGNMENT" : 3,
				"HORIZONTALALIGNMENT" : 0,
				"XOFFSET" : 0,
				"YOFFSET" : 0,
				"ANGLE" : -50.655132,
				"FONTLEADING" : 0,
				"WORDSPACING" : 100,
				"CHARACTERWIDTH" : 100,
				"CHARACTERSPACING" : 0,
				"FLIPANGLE" : 0,
				"OVERRIDE" : 0,
				"INC_CRC" : "63D5593C9263C12A",
				"FMEL_UPD_D" : "20170412174630",
				"SHAPE.AREA" : 2250.958536705,
				"SHAPE.LEN" : 246.179383661619
			}
		}
	]
}