{
  "type": "FeatureCollection",
  "crs": {
    "type": "name",
    "properties": {
      "name": "urn:ogc:def:crs:OGC:1.3:CRS84"
    }
  },
  "features": [
    {
      "type": "Feature",
      "id": "stb_precinct_01",
      "geometry": {
        "type": "Polygon",
        "coordinates": [
          [
            [
              103.848,
              1.285
            ],
            [
              103.858,
              1.285
            ],
            [
              103.858,
              1.2985
            ],
            [
              103.848,
              1.2985
            ],
            [
              103.848,
              1.285
            ]
          ]
        ]
      },
      "properties": {
        "name": "Civic District",
        "precinct_id": "stb_precinct_01",
        "country": "Singapore",
        "country_code": "SG",
        "description": "The historic, arts, and cultural heart of Singapore.",
        "key_attractions": [
          "War Memorial Park",
          "National Gallery Singapore",
          "Victoria Theatre",
          "Fort Canning Park"
        ],
        "search_locale_tags": [
          "civic district",
          "war memorial park",
          "national gallery singapore",
          "victoria theatre",
          "fort canning park"
        ],
        "fill": "#1a5276",
        "fill-opacity": 0.25,
        "stroke": "#113f5e",
        "stroke-width": 2.0,
        "stroke-opacity": 0.85
      }
    },
    {
      "type": "Feature",
      "id": "stb_precinct_02",
      "geometry": {
        "type": "Polygon",
        "coordinates": [
          [
            [
              103.854,
              1.272
            ],
            [
              103.869,
              1.272
            ],
            [
              103.869,
              1.2895
            ],
            [
              103.854,
              1.2895
            ],
            [
              103.854,
              1.272
            ]
          ]
        ]
      },
      "properties": {
        "name": "Marina Bay",
        "precinct_id": "stb_precinct_02",
        "country": "Singapore",
        "country_code": "SG",
        "description": "The modern, futuristic architectural waterfront showcase.",
        "key_attractions": [
          "Marina Bay Sands (MBS)",
          "Gardens by the Bay",
          "ArtScience Museum",
          "Singapore Flyer"
        ],
        "search_locale_tags": [
          "marina bay",
          "marina bay sands (mbs)",
          "gardens by the bay",
          "artscience museum",
          "singapore flyer"
        ],
        "fill": "#1a5276",
        "fill-opacity": 0.25,
        "stroke": "#113f5e",
        "stroke-width": 2.0,
        "stroke-opacity": 0.85
      }
    },
    {
      "type": "Feature",
      "id": "stb_precinct_03",
      "geometry": {
        "type": "Polygon",
        "coordinates": [
          [
            [
              103.839,
              1.273
            ],
            [
              103.849,
              1.273
            ],
            [
              103.849,
              1.286
            ],
            [
              103.839,
              1.286
            ],
            [
              103.839,
              1.273
            ]
          ]
        ]
      },
      "properties": {
        "name": "Chinatown",
        "precinct_id": "stb_precinct_03",
        "country": "Singapore",
        "country_code": "SG",
        "description": "The historic ethnic enclave blending traditional shophouses, temples, and hawker centres.",
        "key_attractions": [
          "Buddha Tooth Relic Temple",
          "Maxwell Food Centre",
          "Sri Mariamman Temple",
          "Amoy Street"
        ],
        "search_locale_tags": [
          "chinatown",
          "buddha tooth relic temple",
          "maxwell food centre",
          "sri mariamman temple",
          "amoy street"
        ],
        "fill": "#1a5276",
        "fill-opacity": 0.25,
        "stroke": "#113f5e",
        "stroke-width": 2.0,
        "stroke-opacity": 0.85
      }
    },
    {
      "type": "Feature",
      "id": "stb_precinct_04",
      "geometry": {
        "type": "Polygon",
        "coordinates": [
          [
            [
              103.828,
              1.299
            ],
            [
              103.847,
              1.299
            ],
            [
              103.847,
              1.3045
            ],
            [
              103.828,
              1.3045
            ],
            [
              103.828,
              1.299
            ]
          ]
        ]
      },
      "properties": {
        "name": "Orchard Road",
        "precinct_id": "stb_precinct_04",
        "country": "Singapore",
        "country_code": "SG",
        "description": "Singapore's premier retail, lifestyle, and global shopping belt.",
        "key_attractions": [
          "ION Orchard",
          "Design Orchard",
          "Somerset Belt",
          "Emerald Hill Heritage Shophouses"
        ],
        "search_locale_tags": [
          "orchard road",
          "ion orchard",
          "design orchard",
          "somerset belt",
          "emerald hill heritage shophouses"
        ],
        "fill": "#1a5276",
        "fill-opacity": 0.25,
        "stroke": "#113f5e",
        "stroke-width": 2.0,
        "stroke-opacity": 0.85
      }
    },
    {
      "type": "Feature",
      "id": "stb_precinct_05",
      "geometry": {
        "type": "Polygon",
        "coordinates": [
          [
            [
              103.854,
              1.298
            ],
            [
              103.865,
              1.298
            ],
            [
              103.865,
              1.306
            ],
            [
              103.854,
              1.306
            ],
            [
              103.854,
              1.298
            ]
          ]
        ]
      },
      "properties": {
        "name": "Kampong Gelam",
        "precinct_id": "stb_precinct_05",
        "country": "Singapore",
        "country_code": "SG",
        "description": "The historic seat of Malay royalty turned into a vibrant cultural and lifestyle enclave.",
        "key_attractions": [
          "Sultan Mosque",
          "Haji Lane",
          "Malay Heritage Centre",
          "Bussorah Street"
        ],
        "search_locale_tags": [
          "kampong gelam",
          "sultan mosque",
          "haji lane",
          "malay heritage centre",
          "bussorah street"
        ],
        "fill": "#1a5276",
        "fill-opacity": 0.25,
        "stroke": "#113f5e",
        "stroke-width": 2.0,
        "stroke-opacity": 0.85
      }
    },
    {
      "type": "Feature",
      "id": "stb_precinct_06",
      "geometry": {
        "type": "Polygon",
        "coordinates": [
          [
            [
              103.846,
              1.302
            ],
            [
              103.859,
              1.302
            ],
            [
              103.859,
              1.314
            ],
            [
              103.846,
              1.314
            ],
            [
              103.846,
              1.302
            ]
          ]
        ]
      },
      "properties": {
        "name": "Little India",
        "precinct_id": "stb_precinct_06",
        "country": "Singapore",
        "country_code": "SG",
        "description": "A vibrant historic district alive with traditional scents, shops, and heritage sights.",
        "key_attractions": [
          "Tekka Centre",
          "Sri Veeramakaliamman Temple",
          "Mustafa Centre",
          "Serangoon Road Belt"
        ],
        "search_locale_tags": [
          "little india",
          "tekka centre",
          "sri veeramakaliamman temple",
          "mustafa centre",
          "serangoon road belt"
        ],
        "fill": "#1a5276",
        "fill-opacity": 0.25,
        "stroke": "#113f5e",
        "stroke-width": 2.0,
        "stroke-opacity": 0.85
      }
    },
    {
      "type": "Feature",
      "id": "stb_precinct_07",
      "geometry": {
        "type": "Polygon",
        "coordinates": [
          [
            [
              103.896,
              1.3
            ],
            [
              103.909,
              1.3
            ],
            [
              103.909,
              1.319
            ],
            [
              103.896,
              1.319
            ],
            [
              103.896,
              1.3
            ]
          ]
        ]
      },
      "properties": {
        "name": "Joo Chiat and Katong",
        "precinct_id": "stb_precinct_07",
        "country": "Singapore",
        "country_code": "SG",
        "description": "Singapore's premier Peranakan culture and coastal heritage neighborhood.",
        "key_attractions": [
          "Peranakan Heritage Shophouses",
          "Dunman Food Centre",
          "Joo Chiat Road Belt",
          "Katong Shopping Centre"
        ],
        "search_locale_tags": [
          "joo chiat and katong",
          "peranakan heritage shophouses",
          "dunman food centre",
          "joo chiat road belt",
          "katong shopping centre"
        ],
        "fill": "#1a5276",
        "fill-opacity": 0.25,
        "stroke": "#113f5e",
        "stroke-width": 2.0,
        "stroke-opacity": 0.85
      }
    },
    {
      "type": "Feature",
      "id": "stb_precinct_08",
      "geometry": {
        "type": "Polygon",
        "coordinates": [
          [
            [
              103.815,
              1.24
            ],
            [
              103.85,
              1.24
            ],
            [
              103.85,
              1.26
            ],
            [
              103.815,
              1.26
            ],
            [
              103.815,
              1.24
            ]
          ]
        ]
      },
      "properties": {
        "name": "Sentosa Island",
        "precinct_id": "stb_precinct_08",
        "country": "Singapore",
        "country_code": "SG",
        "description": "The premium island resort playground with world-class theme parks and sandy beaches.",
        "key_attractions": [
          "Universal Studios Singapore",
          "Resorts World Sentosa",
          "Sensoryscape",
          "Siloso Beach"
        ],
        "search_locale_tags": [
          "sentosa island",
          "universal studios singapore",
          "resorts world sentosa",
          "sensoryscape",
          "siloso beach"
        ],
        "fill": "#1a5276",
        "fill-opacity": 0.25,
        "stroke": "#113f5e",
        "stroke-width": 2.0,
        "stroke-opacity": 0.85
      }
    },
    {
      "type": "Feature",
      "id": "stb_precinct_09",
      "geometry": {
        "type": "Polygon",
        "coordinates": [
          [
            [
              103.94,
              1.34
            ],
            [
              104.003,
              1.34
            ],
            [
              104.003,
              1.405
            ],
            [
              103.94,
              1.405
            ],
            [
              103.94,
              1.34
            ]
          ]
        ]
      },
      "properties": {
        "name": "Changi and East Coast",
        "precinct_id": "stb_precinct_09",
        "country": "Singapore",
        "country_code": "SG",
        "description": "The lifestyle, aviation, and coastal recreational precinct of Eastern Singapore.",
        "key_attractions": [
          "Jewel Changi Airport",
          "Changi Village Hawker Centre",
          "East Coast Park Seafood Lagoon"
        ],
        "search_locale_tags": [
          "changi and east coast",
          "jewel changi airport",
          "changi village hawker centre",
          "east coast park seafood lagoon"
        ],
        "fill": "#1a5276",
        "fill-opacity": 0.25,
        "stroke": "#113f5e",
        "stroke-width": 2.0,
        "stroke-opacity": 0.85
      }
    },
    {
      "type": "Feature",
      "id": "stb_precinct_10",
      "geometry": {
        "type": "Polygon",
        "coordinates": [
          [
            [
              103.765,
              1.398
            ],
            [
              103.795,
              1.398
            ],
            [
              103.795,
              1.422
            ],
            [
              103.765,
              1.422
            ],
            [
              103.765,
              1.398
            ]
          ]
        ]
      },
      "properties": {
        "name": "Mandai and Kranji",
        "precinct_id": "stb_precinct_10",
        "country": "Singapore",
        "country_code": "SG",
        "description": "The global biodiversity, nature, wildlife reserve, and eco-tourism sanctuary.",
        "key_attractions": [
          "Singapore Zoo",
          "Night Safari",
          "Bird Paradise",
          "Kranji War Memorial"
        ],
        "search_locale_tags": [
          "mandai and kranji",
          "singapore zoo",
          "night safari",
          "bird paradise",
          "kranji war memorial"
        ],
        "fill": "#1a5276",
        "fill-opacity": 0.25,
        "stroke": "#113f5e",
        "stroke-width": 2.0,
        "stroke-opacity": 0.85
      }
    }
  ]
}